{
  "type": "FeatureCollection",
  "features": [
    {
      "type": "Feature",
      "geometry": {
        "type": "Point",
        "coordinates": [
          1.95404752645252,
          41.26393956250549
        ]
      },
      "properties": {
        "date": "2025-01-14"
      }
    },
    {
      "type": "Feature",
      "geometry": {
        "type": "Point",
        "coordinates": [
          1.954405610883254,
          41.26394281536968
        ]
      },
      "properties": {
        "date": "2025-01-14"
      }
    },
    {
      "type": "Feature",
      "geometry": {
        "type": "Point",
        "coordinates": [
          1.9576283733989253,
          41.26397204104052
        ]
      },
      "properties": {
        "date": "2025-01-14"
      }
    },
    {
      "type": "Feature",
      "geometry": {
        "type": "Point",
        "coordinates": [
          1.9577477350646988,
          41.26397312174069
        ]
      },
      "properties": {
        "date": "2025-01-14"
      }
    },
    {
      "type": "Feature",
      "geometry": {
        "type": "Point",
        "coordinates": [
          1.9578670967369736,
          41.26397420231712
        ]
      },
      "properties": {
        "date": "2025-01-14"
      }
    },
    {
      "type": "Feature",
      "geometry": {
        "type": "Point",
        "coordinates": [
          1.9579864584157496,
          41.26397528276984
        ]
      },
      "properties": {
        "date": "2025-01-14"
      }
    },
    {
      "type": "Feature",
      "geometry": {
        "type": "Point",
        "coordinates": [
          1.958105820101025,
          41.26397636309884
        ]
      },
      "properties": {
        "date": "2025-01-14"
      }
    },
    {
      "type": "Feature",
      "geometry": {
        "type": "Point",
        "coordinates": [
          1.9582251817927991,
          41.26397744330412
        ]
      },
      "properties": {
        "date": "2025-01-14"
      }
    },
    {
      "type": "Feature",
      "geometry": {
        "type": "Point",
        "coordinates": [
          1.958344543491072,
          41.26397852338567
        ]
      },
      "properties": {
        "date": "2025-01-14"
      }
    },
    {
      "type": "Feature",
      "geometry": {
        "type": "Point",
        "coordinates": [
          1.9584639051958426,
          41.2639796033435
        ]
      },
      "properties": {
        "date": "2025-01-14"
      }
    },
    {
      "type": "Feature",
      "geometry": {
        "type": "Point",
        "coordinates": [
          1.95858326690711,
          41.26398068317761
        ]
      },
      "properties": {
        "date": "2025-01-14"
      }
    },
    {
      "type": "Feature",
      "geometry": {
        "type": "Point",
        "coordinates": [
          1.9589413520798857,
          41.263983921937616
        ]
      },
      "properties": {
        "date": "2025-01-14"
      }
    },
    {
      "type": "Feature",
      "geometry": {
        "type": "Point",
        "coordinates": [
          1.9591800755608733,
          41.263986080492344
        ]
      },
      "properties": {
        "date": "2025-01-14"
      }
    },
    {
      "type": "Feature",
      "geometry": {
        "type": "Point",
        "coordinates": [
          1.9592994373111061,
          41.26398715958413
        ]
      },
      "properties": {
        "date": "2025-01-14"
      }
    },
    {
      "type": "Feature",
      "geometry": {
        "type": "Point",
        "coordinates": [
          1.9594187990678307,
          41.263988238552194
        ]
      },
      "properties": {
        "date": "2025-01-14"
      }
    },
    {
      "type": "Feature",
      "geometry": {
        "type": "Point",
        "coordinates": [
          1.9596575226007515,
          41.26399039611716
        ]
      },
      "properties": {
        "date": "2025-01-14"
      }
    },
    {
      "type": "Feature",
      "geometry": {
        "type": "Point",
        "coordinates": [
          1.9597768843769463,
          41.263991474714054
        ]
      },
      "properties": {
        "date": "2025-01-14"
      }
    },
    {
      "type": "Feature",
      "geometry": {
        "type": "Point",
        "coordinates": [
          1.9598962461596303,
          41.26399255318723
        ]
      },
      "properties": {
        "date": "2025-01-14"
      }
    },
    {
      "type": "Feature",
      "geometry": {
        "type": "Point",
        "coordinates": [
          1.961447949924649,
          41.26400656207986
        ]
      },
      "properties": {
        "date": "2025-01-14"
      }
    },
    {
      "type": "Feature",
      "geometry": {
        "type": "Point",
        "coordinates": [
          1.9616866736780203,
          41.26400871543827
        ]
      },
      "properties": {
        "date": "2025-01-14"
      }
    },
    {
      "type": "Feature",
      "geometry": {
        "type": "Point",
        "coordinates": [
          1.9618060355644213,
          41.26400979193191
        ]
      },
      "properties": {
        "date": "2025-01-14"
      }
    },
    {
      "type": "Feature",
      "geometry": {
        "type": "Point",
        "coordinates": [
          1.9619253974572988,
          41.26401086830182
        ]
      },
      "properties": {
        "date": "2025-01-14"
      }
    },
    {
      "type": "Feature",
      "geometry": {
        "type": "Point",
        "coordinates": [
          1.9620447593566517,
          41.264011944547995
        ]
      },
      "properties": {
        "date": "2025-01-14"
      }
    },
    {
      "type": "Feature",
      "geometry": {
        "type": "Point",
        "coordinates": [
          1.9521391836952662,
          41.26383213193588
        ]
      },
      "properties": {
        "date": "2025-01-14"
      }
    },
    {
      "type": "Feature",
      "geometry": {
        "type": "Point",
        "coordinates": [
          1.9522585448972318,
          41.26383321832377
        ]
      },
      "properties": {
        "date": "2025-01-14"
      }
    },
    {
      "type": "Feature",
      "geometry": {
        "type": "Point",
        "coordinates": [
          1.9523779061057334,
          41.26383430458794
        ]
      },
      "properties": {
        "date": "2025-01-14"
      }
    },
    {
      "type": "Feature",
      "geometry": {
        "type": "Point",
        "coordinates": [
          1.9524972673207692,
          41.26383539072839
        ]
      },
      "properties": {
        "date": "2025-01-14"
      }
    },
    {
      "type": "Feature",
      "geometry": {
        "type": "Point",
        "coordinates": [
          1.9526166285423399,
          41.26383647674512
        ]
      },
      "properties": {
        "date": "2025-01-14"
      }
    },
    {
      "type": "Feature",
      "geometry": {
        "type": "Point",
        "coordinates": [
          1.952735989770443,
          41.26383756263812
        ]
      },
      "properties": {
        "date": "2025-01-14"
      }
    },
    {
      "type": "Feature",
      "geometry": {
        "type": "Point",
        "coordinates": [
          1.9528553510050783,
          41.26383864840742
        ]
      },
      "properties": {
        "date": "2025-01-14"
      }
    },
    {
      "type": "Feature",
      "geometry": {
        "type": "Point",
        "coordinates": [
          1.9529747122462466,
          41.263839734052986
        ]
      },
      "properties": {
        "date": "2025-01-14"
      }
    },
    {
      "type": "Feature",
      "geometry": {
        "type": "Point",
        "coordinates": [
          1.9530940734939453,
          41.26384081957484
        ]
      },
      "properties": {
        "date": "2025-01-14"
      }
    },
    {
      "type": "Feature",
      "geometry": {
        "type": "Point",
        "coordinates": [
          1.9532134347481744,
          41.26384190497298
        ]
      },
      "properties": {
        "date": "2025-01-14"
      }
    },
    {
      "type": "Feature",
      "geometry": {
        "type": "Point",
        "coordinates": [
          1.953332796008933,
          41.263842990247376
        ]
      },
      "properties": {
        "date": "2025-01-14"
      }
    },
    {
      "type": "Feature",
      "geometry": {
        "type": "Point",
        "coordinates": [
          1.9534521572762202,
          41.26384407539807
        ]
      },
      "properties": {
        "date": "2025-01-14"
      }
    },
    {
      "type": "Feature",
      "geometry": {
        "type": "Point",
        "coordinates": [
          1.9535715185500357,
          41.263845160425035
        ]
      },
      "properties": {
        "date": "2025-01-14"
      }
    },
    {
      "type": "Feature",
      "geometry": {
        "type": "Point",
        "coordinates": [
          1.9536908798303785,
          41.263846245328295
        ]
      },
      "properties": {
        "date": "2025-01-14"
      }
    },
    {
      "type": "Feature",
      "geometry": {
        "type": "Point",
        "coordinates": [
          1.9538102411172482,
          41.26384733010783
        ]
      },
      "properties": {
        "date": "2025-01-14"
      }
    },
    {
      "type": "Feature",
      "geometry": {
        "type": "Point",
        "coordinates": [
          1.9539296024106434,
          41.263848414763636
        ]
      },
      "properties": {
        "date": "2025-01-14"
      }
    },
    {
      "type": "Feature",
      "geometry": {
        "type": "Point",
        "coordinates": [
          1.9540489637105636,
          41.263849499295716
        ]
      },
      "properties": {
        "date": "2025-01-14"
      }
    },
    {
      "type": "Feature",
      "geometry": {
        "type": "Point",
        "coordinates": [
          1.9541683250170083,
          41.2638505837041
        ]
      },
      "properties": {
        "date": "2025-01-14"
      }
    },
    {
      "type": "Feature",
      "geometry": {
        "type": "Point",
        "coordinates": [
          1.9542876863299765,
          41.26385166798874
        ]
      },
      "properties": {
        "date": "2025-01-14"
      }
    },
    {
      "type": "Feature",
      "geometry": {
        "type": "Point",
        "coordinates": [
          1.954407047649468,
          41.26385275214966
        ]
      },
      "properties": {
        "date": "2025-01-14"
      }
    },
    {
      "type": "Feature",
      "geometry": {
        "type": "Point",
        "coordinates": [
          1.954526408975481,
          41.26385383618689
        ]
      },
      "properties": {
        "date": "2025-01-14"
      }
    },
    {
      "type": "Feature",
      "geometry": {
        "type": "Point",
        "coordinates": [
          1.9546457703080153,
          41.26385492010038
        ]
      },
      "properties": {
        "date": "2025-01-14"
      }
    },
    {
      "type": "Feature",
      "geometry": {
        "type": "Point",
        "coordinates": [
          1.9547651316470707,
          41.26385600389014
        ]
      },
      "properties": {
        "date": "2025-01-14"
      }
    },
    {
      "type": "Feature",
      "geometry": {
        "type": "Point",
        "coordinates": [
          1.9548844929926463,
          41.26385708755618
        ]
      },
      "properties": {
        "date": "2025-01-14"
      }
    },
    {
      "type": "Feature",
      "geometry": {
        "type": "Point",
        "coordinates": [
          1.9550038543447403,
          41.26385817109851
        ]
      },
      "properties": {
        "date": "2025-01-14"
      }
    },
    {
      "type": "Feature",
      "geometry": {
        "type": "Point",
        "coordinates": [
          1.955123215703353,
          41.26385925451712
        ]
      },
      "properties": {
        "date": "2025-01-14"
      }
    },
    {
      "type": "Feature",
      "geometry": {
        "type": "Point",
        "coordinates": [
          1.9552425770684831,
          41.26386033781202
        ]
      },
      "properties": {
        "date": "2025-01-14"
      }
    },
    {
      "type": "Feature",
      "geometry": {
        "type": "Point",
        "coordinates": [
          1.9553619384401306,
          41.26386142098318
        ]
      },
      "properties": {
        "date": "2025-01-14"
      }
    },
    {
      "type": "Feature",
      "geometry": {
        "type": "Point",
        "coordinates": [
          1.955481299818294,
          41.26386250403063
        ]
      },
      "properties": {
        "date": "2025-01-14"
      }
    },
    {
      "type": "Feature",
      "geometry": {
        "type": "Point",
        "coordinates": [
          1.9556006612029728,
          41.26386358695436
        ]
      },
      "properties": {
        "date": "2025-01-14"
      }
    },
    {
      "type": "Feature",
      "geometry": {
        "type": "Point",
        "coordinates": [
          1.9557200225941662,
          41.263864669754355
        ]
      },
      "properties": {
        "date": "2025-01-14"
      }
    },
    {
      "type": "Feature",
      "geometry": {
        "type": "Point",
        "coordinates": [
          1.9558393839918737,
          41.263865752430654
        ]
      },
      "properties": {
        "date": "2025-01-14"
      }
    },
    {
      "type": "Feature",
      "geometry": {
        "type": "Point",
        "coordinates": [
          1.9572717212721795,
          41.26387873489587
        ]
      },
      "properties": {
        "date": "2025-01-14"
      }
    },
    {
      "type": "Feature",
      "geometry": {
        "type": "Point",
        "coordinates": [
          1.9573910827545007,
          41.26387981596379
        ]
      },
      "properties": {
        "date": "2025-01-14"
      }
    },
    {
      "type": "Feature",
      "geometry": {
        "type": "Point",
        "coordinates": [
          1.957510444243325,
          41.263880896907985
        ]
      },
      "properties": {
        "date": "2025-01-14"
      }
    },
    {
      "type": "Feature",
      "geometry": {
        "type": "Point",
        "coordinates": [
          1.9576298057386523,
          41.26388197772845
        ]
      },
      "properties": {
        "date": "2025-01-14"
      }
    },
    {
      "type": "Feature",
      "geometry": {
        "type": "Point",
        "coordinates": [
          1.9585846979352803,
          41.26389061983833
        ]
      },
      "properties": {
        "date": "2025-01-14"
      }
    },
    {
      "type": "Feature",
      "geometry": {
        "type": "Point",
        "coordinates": [
          1.9587040594890996,
          41.26389169954532
        ]
      },
      "properties": {
        "date": "2025-01-14"
      }
    },
    {
      "type": "Feature",
      "geometry": {
        "type": "Point",
        "coordinates": [
          1.9588234210494133,
          41.26389277912858
        ]
      },
      "properties": {
        "date": "2025-01-14"
      }
    },
    {
      "type": "Feature",
      "geometry": {
        "type": "Point",
        "coordinates": [
          1.958942782616222,
          41.26389385858813
        ]
      },
      "properties": {
        "date": "2025-01-14"
      }
    },
    {
      "type": "Feature",
      "geometry": {
        "type": "Point",
        "coordinates": [
          1.9590621441895246,
          41.26389493792396
        ]
      },
      "properties": {
        "date": "2025-01-14"
      }
    },
    {
      "type": "Feature",
      "geometry": {
        "type": "Point",
        "coordinates": [
          1.9591815057693198,
          41.26389601713606
        ]
      },
      "properties": {
        "date": "2025-01-14"
      }
    },
    {
      "type": "Feature",
      "geometry": {
        "type": "Point",
        "coordinates": [
          1.9594202289483877,
          41.26389817518911
        ]
      },
      "properties": {
        "date": "2025-01-14"
      }
    },
    {
      "type": "Feature",
      "geometry": {
        "type": "Point",
        "coordinates": [
          1.9595395905476582,
          41.26389925403006
        ]
      },
      "properties": {
        "date": "2025-01-14"
      }
    },
    {
      "type": "Feature",
      "geometry": {
        "type": "Point",
        "coordinates": [
          1.9596589521534187,
          41.26390033274727
        ]
      },
      "properties": {
        "date": "2025-01-14"
      }
    },
    {
      "type": "Feature",
      "geometry": {
        "type": "Point",
        "coordinates": [
          1.9598976753844075,
          41.263902489810555
        ]
      },
      "properties": {
        "date": "2025-01-14"
      }
    },
    {
      "type": "Feature",
      "geometry": {
        "type": "Point",
        "coordinates": [
          1.9600170370096337,
          41.263903568156614
        ]
      },
      "properties": {
        "date": "2025-01-14"
      }
    },
    {
      "type": "Feature",
      "geometry": {
        "type": "Point",
        "coordinates": [
          1.9601363986413474,
          41.263904646378954
        ]
      },
      "properties": {
        "date": "2025-01-14"
      }
    },
    {
      "type": "Feature",
      "geometry": {
        "type": "Point",
        "coordinates": [
          1.9602557602795476,
          41.26390572447757
        ]
      },
      "properties": {
        "date": "2025-01-14"
      }
    },
    {
      "type": "Feature",
      "geometry": {
        "type": "Point",
        "coordinates": [
          1.9603751219242336,
          41.26390680245246
        ]
      },
      "properties": {
        "date": "2025-01-14"
      }
    },
    {
      "type": "Feature",
      "geometry": {
        "type": "Point",
        "coordinates": [
          1.9604944835754043,
          41.263907880303634
        ]
      },
      "properties": {
        "date": "2025-01-14"
      }
    },
    {
      "type": "Feature",
      "geometry": {
        "type": "Point",
        "coordinates": [
          1.960613845233059,
          41.26390895803109
        ]
      },
      "properties": {
        "date": "2025-01-14"
      }
    },
    {
      "type": "Feature",
      "geometry": {
        "type": "Point",
        "coordinates": [
          1.9607332068971977,
          41.263910035634815
        ]
      },
      "properties": {
        "date": "2025-01-14"
      }
    },
    {
      "type": "Feature",
      "geometry": {
        "type": "Point",
        "coordinates": [
          1.9608525685678186,
          41.26391111311483
        ]
      },
      "properties": {
        "date": "2025-01-14"
      }
    },
    {
      "type": "Feature",
      "geometry": {
        "type": "Point",
        "coordinates": [
          1.9609719302449213,
          41.26391219047111
        ]
      },
      "properties": {
        "date": "2025-01-14"
      }
    },
    {
      "type": "Feature",
      "geometry": {
        "type": "Point",
        "coordinates": [
          1.961091291928505,
          41.263913267703686
        ]
      },
      "properties": {
        "date": "2025-01-14"
      }
    },
    {
      "type": "Feature",
      "geometry": {
        "type": "Point",
        "coordinates": [
          1.96121065361857,
          41.26391434481253
        ]
      },
      "properties": {
        "date": "2025-01-14"
      }
    },
    {
      "type": "Feature",
      "geometry": {
        "type": "Point",
        "coordinates": [
          1.961330015315114,
          41.263915421797655
        ]
      },
      "properties": {
        "date": "2025-01-14"
      }
    },
    {
      "type": "Feature",
      "geometry": {
        "type": "Point",
        "coordinates": [
          1.9614493770181376,
          41.26391649865905
        ]
      },
      "properties": {
        "date": "2025-01-14"
      }
    },
    {
      "type": "Feature",
      "geometry": {
        "type": "Point",
        "coordinates": [
          1.9615687387276393,
          41.26391757539673
        ]
      },
      "properties": {
        "date": "2025-01-14"
      }
    },
    {
      "type": "Feature",
      "geometry": {
        "type": "Point",
        "coordinates": [
          1.9616881004436182,
          41.2639186520107
        ]
      },
      "properties": {
        "date": "2025-01-14"
      }
    },
    {
      "type": "Feature",
      "geometry": {
        "type": "Point",
        "coordinates": [
          1.9620461856304126,
          41.26392188111025
        ]
      },
      "properties": {
        "date": "2025-01-14"
      }
    },
    {
      "type": "Feature",
      "geometry": {
        "type": "Point",
        "coordinates": [
          1.9621655473722939,
          41.26392295722932
        ]
      },
      "properties": {
        "date": "2025-01-14"
      }
    },
    {
      "type": "Feature",
      "geometry": {
        "type": "Point",
        "coordinates": [
          1.9622849091206493,
          41.263924033224676
        ]
      },
      "properties": {
        "date": "2025-01-14"
      }
    },
    {
      "type": "Feature",
      "geometry": {
        "type": "Point",
        "coordinates": [
          1.9624042708754774,
          41.26392510909631
        ]
      },
      "properties": {
        "date": "2025-01-14"
      }
    },
    {
      "type": "Feature",
      "geometry": {
        "type": "Point",
        "coordinates": [
          1.962523632636778,
          41.26392618484422
        ]
      },
      "properties": {
        "date": "2025-01-14"
      }
    },
    {
      "type": "Feature",
      "geometry": {
        "type": "Point",
        "coordinates": [
          1.96264299440455,
          41.26392726046841
        ]
      },
      "properties": {
        "date": "2025-01-14"
      }
    },
    {
      "type": "Feature",
      "geometry": {
        "type": "Point",
        "coordinates": [
          1.9627623561787928,
          41.26392833596888
        ]
      },
      "properties": {
        "date": "2025-01-14"
      }
    },
    {
      "type": "Feature",
      "geometry": {
        "type": "Point",
        "coordinates": [
          1.962881717959506,
          41.26392941134563
        ]
      },
      "properties": {
        "date": "2025-01-14"
      }
    },
    {
      "type": "Feature",
      "geometry": {
        "type": "Point",
        "coordinates": [
          1.9630010797466884,
          41.26393048659864
        ]
      },
      "properties": {
        "date": "2025-01-14"
      }
    },
    {
      "type": "Feature",
      "geometry": {
        "type": "Point",
        "coordinates": [
          1.9631204415403387,
          41.263931561727944
        ]
      },
      "properties": {
        "date": "2025-01-14"
      }
    },
    {
      "type": "Feature",
      "geometry": {
        "type": "Point",
        "coordinates": [
          1.9632398033404572,
          41.263932636733536
        ]
      },
      "properties": {
        "date": "2025-01-14"
      }
    },
    {
      "type": "Feature",
      "geometry": {
        "type": "Point",
        "coordinates": [
          1.963359165147043,
          41.26393371161539
        ]
      },
      "properties": {
        "date": "2025-01-14"
      }
    },
    {
      "type": "Feature",
      "geometry": {
        "type": "Point",
        "coordinates": [
          1.9634785269600952,
          41.263934786373525
        ]
      },
      "properties": {
        "date": "2025-01-14"
      }
    },
    {
      "type": "Feature",
      "geometry": {
        "type": "Point",
        "coordinates": [
          1.9635978887796128,
          41.26393586100794
        ]
      },
      "properties": {
        "date": "2025-01-14"
      }
    },
    {
      "type": "Feature",
      "geometry": {
        "type": "Point",
        "coordinates": [
          1.9637172506055947,
          41.263936935518636
        ]
      },
      "properties": {
        "date": "2025-01-14"
      }
    },
    {
      "type": "Feature",
      "geometry": {
        "type": "Point",
        "coordinates": [
          1.9638366124380415,
          41.2639380099056
        ]
      },
      "properties": {
        "date": "2025-01-14"
      }
    },
    {
      "type": "Feature",
      "geometry": {
        "type": "Point",
        "coordinates": [
          1.9639559742769512,
          41.263939084168854
        ]
      },
      "properties": {
        "date": "2025-01-14"
      }
    },
    {
      "type": "Feature",
      "geometry": {
        "type": "Point",
        "coordinates": [
          1.9640753361223235,
          41.26394015830839
        ]
      },
      "properties": {
        "date": "2025-01-14"
      }
    },
    {
      "type": "Feature",
      "geometry": {
        "type": "Point",
        "coordinates": [
          1.9641946979741578,
          41.263941232324186
        ]
      },
      "properties": {
        "date": "2025-01-14"
      }
    },
    {
      "type": "Feature",
      "geometry": {
        "type": "Point",
        "coordinates": [
          1.9643140598324536,
          41.26394230621628
        ]
      },
      "properties": {
        "date": "2025-01-14"
      }
    },
    {
      "type": "Feature",
      "geometry": {
        "type": "Point",
        "coordinates": [
          1.9644334216972088,
          41.26394337998464
        ]
      },
      "properties": {
        "date": "2025-01-14"
      }
    },
    {
      "type": "Feature",
      "geometry": {
        "type": "Point",
        "coordinates": [
          1.9645527835684242,
          41.263944453629286
        ]
      },
      "properties": {
        "date": "2025-01-14"
      }
    },
    {
      "type": "Feature",
      "geometry": {
        "type": "Point",
        "coordinates": [
          1.9646721454460987,
          41.2639455271502
        ]
      },
      "properties": {
        "date": "2025-01-14"
      }
    },
    {
      "type": "Feature",
      "geometry": {
        "type": "Point",
        "coordinates": [
          1.9647915073302311,
          41.26394660054739
        ]
      },
      "properties": {
        "date": "2025-01-14"
      }
    },
    {
      "type": "Feature",
      "geometry": {
        "type": "Point",
        "coordinates": [
          1.9649108692208208,
          41.26394767382088
        ]
      },
      "properties": {
        "date": "2025-01-14"
      }
    },
    {
      "type": "Feature",
      "geometry": {
        "type": "Point",
        "coordinates": [
          1.9650302311178676,
          41.26394874697063
        ]
      },
      "properties": {
        "date": "2025-01-14"
      }
    },
    {
      "type": "Feature",
      "geometry": {
        "type": "Point",
        "coordinates": [
          1.9651495930213696,
          41.26394981999667
        ]
      },
      "properties": {
        "date": "2025-01-14"
      }
    },
    {
      "type": "Feature",
      "geometry": {
        "type": "Point",
        "coordinates": [
          1.965507678770605,
          41.26395303833242
        ]
      },
      "properties": {
        "date": "2025-01-14"
      }
    },
    {
      "type": "Feature",
      "geometry": {
        "type": "Point",
        "coordinates": [
          1.9656270406999237,
          41.263954110863565
        ]
      },
      "properties": {
        "date": "2025-01-14"
      }
    },
    {
      "type": "Feature",
      "geometry": {
        "type": "Point",
        "coordinates": [
          1.9657464026356948,
          41.263955183270994
        ]
      },
      "properties": {
        "date": "2025-01-14"
      }
    },
    {
      "type": "Feature",
      "geometry": {
        "type": "Point",
        "coordinates": [
          1.965865764577917,
          41.26395625555468
        ]
      },
      "properties": {
        "date": "2025-01-14"
      }
    },
    {
      "type": "Feature",
      "geometry": {
        "type": "Point",
        "coordinates": [
          1.949395321500821,
          41.26371704779006
        ]
      },
      "properties": {
        "date": "2025-01-14"
      }
    },
    {
      "type": "Feature",
      "geometry": {
        "type": "Point",
        "coordinates": [
          1.9495146823883232,
          41.263718137020064
        ]
      },
      "properties": {
        "date": "2025-01-14"
      }
    },
    {
      "type": "Feature",
      "geometry": {
        "type": "Point",
        "coordinates": [
          1.9496340432823784,
          41.263719226126355
        ]
      },
      "properties": {
        "date": "2025-01-14"
      }
    },
    {
      "type": "Feature",
      "geometry": {
        "type": "Point",
        "coordinates": [
          1.9497534041829852,
          41.263720315108934
        ]
      },
      "properties": {
        "date": "2025-01-14"
      }
    },
    {
      "type": "Feature",
      "geometry": {
        "type": "Point",
        "coordinates": [
          1.9498727650901437,
          41.26372140396778
        ]
      },
      "properties": {
        "date": "2025-01-14"
      }
    },
    {
      "type": "Feature",
      "geometry": {
        "type": "Point",
        "coordinates": [
          1.9499921260038517,
          41.26372249270292
        ]
      },
      "properties": {
        "date": "2025-01-14"
      }
    },
    {
      "type": "Feature",
      "geometry": {
        "type": "Point",
        "coordinates": [
          1.9501114869241098,
          41.26372358131434
        ]
      },
      "properties": {
        "date": "2025-01-14"
      }
    },
    {
      "type": "Feature",
      "geometry": {
        "type": "Point",
        "coordinates": [
          1.950230847850916,
          41.26372466980203
        ]
      },
      "properties": {
        "date": "2025-01-14"
      }
    },
    {
      "type": "Feature",
      "geometry": {
        "type": "Point",
        "coordinates": [
          1.9503502087842715,
          41.26372575816601
        ]
      },
      "properties": {
        "date": "2025-01-14"
      }
    },
    {
      "type": "Feature",
      "geometry": {
        "type": "Point",
        "coordinates": [
          1.9504695697241738,
          41.263726846406264
        ]
      },
      "properties": {
        "date": "2025-01-14"
      }
    },
    {
      "type": "Feature",
      "geometry": {
        "type": "Point",
        "coordinates": [
          1.9505889306706223,
          41.26372793452281
        ]
      },
      "properties": {
        "date": "2025-01-14"
      }
    },
    {
      "type": "Feature",
      "geometry": {
        "type": "Point",
        "coordinates": [
          1.9507082916236174,
          41.263729022515626
        ]
      },
      "properties": {
        "date": "2025-01-14"
      }
    },
    {
      "type": "Feature",
      "geometry": {
        "type": "Point",
        "coordinates": [
          1.9508276525831574,
          41.26373011038473
        ]
      },
      "properties": {
        "date": "2025-01-14"
      }
    },
    {
      "type": "Feature",
      "geometry": {
        "type": "Point",
        "coordinates": [
          1.9509470135492417,
          41.26373119813012
        ]
      },
      "properties": {
        "date": "2025-01-14"
      }
    },
    {
      "type": "Feature",
      "geometry": {
        "type": "Point",
        "coordinates": [
          1.9510663745218697,
          41.263732285751765
        ]
      },
      "properties": {
        "date": "2025-01-14"
      }
    },
    {
      "type": "Feature",
      "geometry": {
        "type": "Point",
        "coordinates": [
          1.9511857355010407,
          41.263733373249714
        ]
      },
      "properties": {
        "date": "2025-01-14"
      }
    },
    {
      "type": "Feature",
      "geometry": {
        "type": "Point",
        "coordinates": [
          1.9513050964867538,
          41.26373446062394
        ]
      },
      "properties": {
        "date": "2025-01-14"
      }
    },
    {
      "type": "Feature",
      "geometry": {
        "type": "Point",
        "coordinates": [
          1.9514244574790083,
          41.26373554787445
        ]
      },
      "properties": {
        "date": "2025-01-14"
      }
    },
    {
      "type": "Feature",
      "geometry": {
        "type": "Point",
        "coordinates": [
          1.9515438184778036,
          41.26373663500123
        ]
      },
      "properties": {
        "date": "2025-01-14"
      }
    },
    {
      "type": "Feature",
      "geometry": {
        "type": "Point",
        "coordinates": [
          1.9516631794831385,
          41.2637377220043
        ]
      },
      "properties": {
        "date": "2025-01-14"
      }
    },
    {
      "type": "Feature",
      "geometry": {
        "type": "Point",
        "coordinates": [
          1.9517825404950133,
          41.263738808883645
        ]
      },
      "properties": {
        "date": "2025-01-14"
      }
    },
    {
      "type": "Feature",
      "geometry": {
        "type": "Point",
        "coordinates": [
          1.9519019015134258,
          41.26373989563926
        ]
      },
      "properties": {
        "date": "2025-01-14"
      }
    },
    {
      "type": "Feature",
      "geometry": {
        "type": "Point",
        "coordinates": [
          1.9520212625383764,
          41.263740982271166
        ]
      },
      "properties": {
        "date": "2025-01-14"
      }
    },
    {
      "type": "Feature",
      "geometry": {
        "type": "Point",
        "coordinates": [
          1.9521406235698637,
          41.263742068779365
        ]
      },
      "properties": {
        "date": "2025-01-14"
      }
    },
    {
      "type": "Feature",
      "geometry": {
        "type": "Point",
        "coordinates": [
          1.9558408187842498,
          41.263775689168234
        ]
      },
      "properties": {
        "date": "2025-01-14"
      }
    },
    {
      "type": "Feature",
      "geometry": {
        "type": "Point",
        "coordinates": [
          1.9559601800245274,
          41.26377677171739
        ]
      },
      "properties": {
        "date": "2025-01-14"
      }
    },
    {
      "type": "Feature",
      "geometry": {
        "type": "Point",
        "coordinates": [
          1.9560795412713174,
          41.26377785414283
        ]
      },
      "properties": {
        "date": "2025-01-14"
      }
    },
    {
      "type": "Feature",
      "geometry": {
        "type": "Point",
        "coordinates": [
          1.956198902524619,
          41.26377893644454
        ]
      },
      "properties": {
        "date": "2025-01-14"
      }
    },
    {
      "type": "Feature",
      "geometry": {
        "type": "Point",
        "coordinates": [
          1.9563182637844312,
          41.26378001862254
        ]
      },
      "properties": {
        "date": "2025-01-14"
      }
    },
    {
      "type": "Feature",
      "geometry": {
        "type": "Point",
        "coordinates": [
          1.956437625050754,
          41.26378110067681
        ]
      },
      "properties": {
        "date": "2025-01-14"
      }
    },
    {
      "type": "Feature",
      "geometry": {
        "type": "Point",
        "coordinates": [
          1.9565569863235859,
          41.263782182607365
        ]
      },
      "properties": {
        "date": "2025-01-14"
      }
    },
    {
      "type": "Feature",
      "geometry": {
        "type": "Point",
        "coordinates": [
          1.9566763476029272,
          41.2637832644142
        ]
      },
      "properties": {
        "date": "2025-01-14"
      }
    },
    {
      "type": "Feature",
      "geometry": {
        "type": "Point",
        "coordinates": [
          1.9567957088887757,
          41.26378434609732
        ]
      },
      "properties": {
        "date": "2025-01-14"
      }
    },
    {
      "type": "Feature",
      "geometry": {
        "type": "Point",
        "coordinates": [
          1.9569150701811315,
          41.26378542765671
        ]
      },
      "properties": {
        "date": "2025-01-14"
      }
    },
    {
      "type": "Feature",
      "geometry": {
        "type": "Point",
        "coordinates": [
          1.957034431479994,
          41.263786509092384
        ]
      },
      "properties": {
        "date": "2025-01-14"
      }
    },
    {
      "type": "Feature",
      "geometry": {
        "type": "Point",
        "coordinates": [
          1.9571537927853624,
          41.263787590404334
        ]
      },
      "properties": {
        "date": "2025-01-14"
      }
    },
    {
      "type": "Feature",
      "geometry": {
        "type": "Point",
        "coordinates": [
          1.9572731540972355,
          41.26378867159257
        ]
      },
      "properties": {
        "date": "2025-01-14"
      }
    },
    {
      "type": "Feature",
      "geometry": {
        "type": "Point",
        "coordinates": [
          1.9651510150260771,
          41.26385975646946
        ]
      },
      "properties": {
        "date": "2025-01-14"
      }
    },
    {
      "type": "Feature",
      "geometry": {
        "type": "Point",
        "coordinates": [
          1.9652703767720887,
          41.26386082936838
        ]
      },
      "properties": {
        "date": "2025-01-14"
      }
    },
    {
      "type": "Feature",
      "geometry": {
        "type": "Point",
        "coordinates": [
          1.9653897385245551,
          41.263861902143596
        ]
      },
      "properties": {
        "date": "2025-01-14"
      }
    },
    {
      "type": "Feature",
      "geometry": {
        "type": "Point",
        "coordinates": [
          1.9655091002834746,
          41.263862974795074
        ]
      },
      "properties": {
        "date": "2025-01-14"
      }
    },
    {
      "type": "Feature",
      "geometry": {
        "type": "Point",
        "coordinates": [
          1.9658671855989487,
          41.263866192007214
        ]
      },
      "properties": {
        "date": "2025-01-14"
      }
    },
    {
      "type": "Feature",
      "geometry": {
        "type": "Point",
        "coordinates": [
          1.9659865473836753,
          41.263867264163814
        ]
      },
      "properties": {
        "date": "2025-01-14"
      }
    },
    {
      "type": "Feature",
      "geometry": {
        "type": "Point",
        "coordinates": [
          1.966105909174852,
          41.263868336196694
        ]
      },
      "properties": {
        "date": "2025-01-14"
      }
    },
    {
      "type": "Feature",
      "geometry": {
        "type": "Point",
        "coordinates": [
          1.9662252709724783,
          41.26386940810585
        ]
      },
      "properties": {
        "date": "2025-01-14"
      }
    },
    {
      "type": "Feature",
      "geometry": {
        "type": "Point",
        "coordinates": [
          1.966344632776553,
          41.26387047989129
        ]
      },
      "properties": {
        "date": "2025-01-14"
      }
    },
    {
      "type": "Feature",
      "geometry": {
        "type": "Point",
        "coordinates": [
          1.966463994587075,
          41.263871551553
        ]
      },
      "properties": {
        "date": "2025-01-14"
      }
    },
    {
      "type": "Feature",
      "geometry": {
        "type": "Point",
        "coordinates": [
          1.9665833564040442,
          41.263872623091
        ]
      },
      "properties": {
        "date": "2025-01-14"
      }
    },
    {
      "type": "Feature",
      "geometry": {
        "type": "Point",
        "coordinates": [
          1.96670271822746,
          41.26387369450526
        ]
      },
      "properties": {
        "date": "2025-01-14"
      }
    },
    {
      "type": "Feature",
      "geometry": {
        "type": "Point",
        "coordinates": [
          1.9668220800573202,
          41.26387476579581
        ]
      },
      "properties": {
        "date": "2025-01-14"
      }
    },
    {
      "type": "Feature",
      "geometry": {
        "type": "Point",
        "coordinates": [
          1.9669414418936257,
          41.263875836962626
        ]
      },
      "properties": {
        "date": "2025-01-14"
      }
    },
    {
      "type": "Feature",
      "geometry": {
        "type": "Point",
        "coordinates": [
          1.9670608037363753,
          41.26387690800574
        ]
      },
      "properties": {
        "date": "2025-01-14"
      }
    },
    {
      "type": "Feature",
      "geometry": {
        "type": "Point",
        "coordinates": [
          1.9671801655855679,
          41.26387797892512
        ]
      },
      "properties": {
        "date": "2025-01-14"
      }
    },
    {
      "type": "Feature",
      "geometry": {
        "type": "Point",
        "coordinates": [
          1.9672995274412033,
          41.26387904972079
        ]
      },
      "properties": {
        "date": "2025-01-14"
      }
    },
    {
      "type": "Feature",
      "geometry": {
        "type": "Point",
        "coordinates": [
          1.9674188893032802,
          41.26388012039273
        ]
      },
      "properties": {
        "date": "2025-01-14"
      }
    },
    {
      "type": "Feature",
      "geometry": {
        "type": "Point",
        "coordinates": [
          1.967538251171798,
          41.263881190940936
        ]
      },
      "properties": {
        "date": "2025-01-14"
      }
    },
    {
      "type": "Feature",
      "geometry": {
        "type": "Point",
        "coordinates": [
          1.9676576130467558,
          41.26388226136543
        ]
      },
      "properties": {
        "date": "2025-01-14"
      }
    },
    {
      "type": "Feature",
      "geometry": {
        "type": "Point",
        "coordinates": [
          1.9677769749281537,
          41.26388333166621
        ]
      },
      "properties": {
        "date": "2025-01-14"
      }
    },
    {
      "type": "Feature",
      "geometry": {
        "type": "Point",
        "coordinates": [
          1.96789633681599,
          41.26388440184326
        ]
      },
      "properties": {
        "date": "2025-01-14"
      }
    },
    {
      "type": "Feature",
      "geometry": {
        "type": "Point",
        "coordinates": [
          1.9680156987102646,
          41.263885471896586
        ]
      },
      "properties": {
        "date": "2025-01-14"
      }
    },
    {
      "type": "Feature",
      "geometry": {
        "type": "Point",
        "coordinates": [
          1.9681350606109764,
          41.26388654182619
        ]
      },
      "properties": {
        "date": "2025-01-14"
      }
    },
    {
      "type": "Feature",
      "geometry": {
        "type": "Point",
        "coordinates": [
          1.9682544225181247,
          41.26388761163208
        ]
      },
      "properties": {
        "date": "2025-01-14"
      }
    },
    {
      "type": "Feature",
      "geometry": {
        "type": "Point",
        "coordinates": [
          1.9683737844317086,
          41.26388868131425
        ]
      },
      "properties": {
        "date": "2025-01-14"
      }
    },
    {
      "type": "Feature",
      "geometry": {
        "type": "Point",
        "coordinates": [
          1.9684931463517277,
          41.263889750872686
        ]
      },
      "properties": {
        "date": "2025-01-14"
      }
    },
    {
      "type": "Feature",
      "geometry": {
        "type": "Point",
        "coordinates": [
          1.968612508278181,
          41.26389082030741
        ]
      },
      "properties": {
        "date": "2025-01-14"
      }
    },
    {
      "type": "Feature",
      "geometry": {
        "type": "Point",
        "coordinates": [
          1.968731870211068,
          41.2638918896184
        ]
      },
      "properties": {
        "date": "2025-01-14"
      }
    },
    {
      "type": "Feature",
      "geometry": {
        "type": "Point",
        "coordinates": [
          1.968851232150388,
          41.26389295880568
        ]
      },
      "properties": {
        "date": "2025-01-14"
      }
    },
    {
      "type": "Feature",
      "geometry": {
        "type": "Point",
        "coordinates": [
          1.9689705940961397,
          41.26389402786923
        ]
      },
      "properties": {
        "date": "2025-01-14"
      }
    },
    {
      "type": "Feature",
      "geometry": {
        "type": "Point",
        "coordinates": [
          1.9690899560483226,
          41.26389509680905
        ]
      },
      "properties": {
        "date": "2025-01-14"
      }
    },
    {
      "type": "Feature",
      "geometry": {
        "type": "Point",
        "coordinates": [
          1.9692093180069363,
          41.26389616562516
        ]
      },
      "properties": {
        "date": "2025-01-14"
      }
    },
    {
      "type": "Feature",
      "geometry": {
        "type": "Point",
        "coordinates": [
          1.9693286799719802,
          41.26389723431755
        ]
      },
      "properties": {
        "date": "2025-01-14"
      }
    },
    {
      "type": "Feature",
      "geometry": {
        "type": "Point",
        "coordinates": [
          1.969567403921354,
          41.263899371331156
        ]
      },
      "properties": {
        "date": "2025-01-14"
      }
    },
    {
      "type": "Feature",
      "geometry": {
        "type": "Point",
        "coordinates": [
          1.9696867659056823,
          41.263900439652375
        ]
      },
      "properties": {
        "date": "2025-01-14"
      }
    },
    {
      "type": "Feature",
      "geometry": {
        "type": "Point",
        "coordinates": [
          1.969806127896438,
          41.263901507849866
        ]
      },
      "properties": {
        "date": "2025-01-14"
      }
    },
    {
      "type": "Feature",
      "geometry": {
        "type": "Point",
        "coordinates": [
          1.9699254898936196,
          41.26390257592364
        ]
      },
      "properties": {
        "date": "2025-01-14"
      }
    },
    {
      "type": "Feature",
      "geometry": {
        "type": "Point",
        "coordinates": [
          1.970044851897227,
          41.26390364387369
        ]
      },
      "properties": {
        "date": "2025-01-14"
      }
    },
    {
      "type": "Feature",
      "geometry": {
        "type": "Point",
        "coordinates": [
          1.9464127491822325,
          41.26359971383789
        ]
      },
      "properties": {
        "date": "2025-01-14"
      }
    },
    {
      "type": "Feature",
      "geometry": {
        "type": "Point",
        "coordinates": [
          1.9466514703078168,
          41.26360189835325
        ]
      },
      "properties": {
        "date": "2025-01-14"
      }
    },
    {
      "type": "Feature",
      "geometry": {
        "type": "Point",
        "coordinates": [
          1.946770830880465,
          41.263602990425355
        ]
      },
      "properties": {
        "date": "2025-01-14"
      }
    },
    {
      "type": "Feature",
      "geometry": {
        "type": "Point",
        "coordinates": [
          1.946890191459682,
          41.26360408237374
        ]
      },
      "properties": {
        "date": "2025-01-14"
      }
    },
    {
      "type": "Feature",
      "geometry": {
        "type": "Point",
        "coordinates": [
          1.9470095520454682,
          41.2636051741984
        ]
      },
      "properties": {
        "date": "2025-01-14"
      }
    },
    {
      "type": "Feature",
      "geometry": {
        "type": "Point",
        "coordinates": [
          1.947128912637823,
          41.263606265899355
        ]
      },
      "properties": {
        "date": "2025-01-14"
      }
    },
    {
      "type": "Feature",
      "geometry": {
        "type": "Point",
        "coordinates": [
          1.947248273236745,
          41.26360735747658
        ]
      },
      "properties": {
        "date": "2025-01-14"
      }
    },
    {
      "type": "Feature",
      "geometry": {
        "type": "Point",
        "coordinates": [
          1.947367633842234,
          41.26360844893011
        ]
      },
      "properties": {
        "date": "2025-01-14"
      }
    },
    {
      "type": "Feature",
      "geometry": {
        "type": "Point",
        "coordinates": [
          1.9474869944542887,
          41.2636095402599
        ]
      },
      "properties": {
        "date": "2025-01-14"
      }
    },
    {
      "type": "Feature",
      "geometry": {
        "type": "Point",
        "coordinates": [
          1.9476063550729086,
          41.26361063146597
        ]
      },
      "properties": {
        "date": "2025-01-14"
      }
    },
    {
      "type": "Feature",
      "geometry": {
        "type": "Point",
        "coordinates": [
          1.9477257156980925,
          41.26361172254833
        ]
      },
      "properties": {
        "date": "2025-01-14"
      }
    },
    {
      "type": "Feature",
      "geometry": {
        "type": "Point",
        "coordinates": [
          1.9480837976130252,
          41.263614995053096
        ]
      },
      "properties": {
        "date": "2025-01-14"
      }
    },
    {
      "type": "Feature",
      "geometry": {
        "type": "Point",
        "coordinates": [
          1.9483225189224553,
          41.26361717610434
        ]
      },
      "properties": {
        "date": "2025-01-14"
      }
    },
    {
      "type": "Feature",
      "geometry": {
        "type": "Point",
        "coordinates": [
          1.9484418795870109,
          41.2636182664444
        ]
      },
      "properties": {
        "date": "2025-01-14"
      }
    },
    {
      "type": "Feature",
      "geometry": {
        "type": "Point",
        "coordinates": [
          1.9485612402581256,
          41.263619356660726
        ]
      },
      "properties": {
        "date": "2025-01-14"
      }
    },
    {
      "type": "Feature",
      "geometry": {
        "type": "Point",
        "coordinates": [
          1.9486806009357989,
          41.26362044675333
        ]
      },
      "properties": {
        "date": "2025-01-14"
      }
    },
    {
      "type": "Feature",
      "geometry": {
        "type": "Point",
        "coordinates": [
          1.9487999616200298,
          41.26362153672222
        ]
      },
      "properties": {
        "date": "2025-01-14"
      }
    },
    {
      "type": "Feature",
      "geometry": {
        "type": "Point",
        "coordinates": [
          1.9489193223108172,
          41.2636226265674
        ]
      },
      "properties": {
        "date": "2025-01-14"
      }
    },
    {
      "type": "Feature",
      "geometry": {
        "type": "Point",
        "coordinates": [
          1.9490386830081616,
          41.26362371628885
        ]
      },
      "properties": {
        "date": "2025-01-14"
      }
    },
    {
      "type": "Feature",
      "geometry": {
        "type": "Point",
        "coordinates": [
          1.9491580437120613,
          41.263624805886586
        ]
      },
      "properties": {
        "date": "2025-01-14"
      }
    },
    {
      "type": "Feature",
      "geometry": {
        "type": "Point",
        "coordinates": [
          1.9492774044225158,
          41.263625895360605
        ]
      },
      "properties": {
        "date": "2025-01-14"
      }
    },
    {
      "type": "Feature",
      "geometry": {
        "type": "Point",
        "coordinates": [
          1.9493967651395248,
          41.2636269847109
        ]
      },
      "properties": {
        "date": "2025-01-14"
      }
    },
    {
      "type": "Feature",
      "geometry": {
        "type": "Point",
        "coordinates": [
          1.9693300962321356,
          41.263807170670844
        ]
      },
      "properties": {
        "date": "2025-01-14"
      }
    },
    {
      "type": "Feature",
      "geometry": {
        "type": "Point",
        "coordinates": [
          1.969449458039662,
          41.26380823923614
        ]
      },
      "properties": {
        "date": "2025-01-14"
      }
    },
    {
      "type": "Feature",
      "geometry": {
        "type": "Point",
        "coordinates": [
          1.9695688198536163,
          41.26380930767771
        ]
      },
      "properties": {
        "date": "2025-01-14"
      }
    },
    {
      "type": "Feature",
      "geometry": {
        "type": "Point",
        "coordinates": [
          1.9700462671737038,
          41.263813580206794
        ]
      },
      "properties": {
        "date": "2025-01-14"
      }
    },
    {
      "type": "Feature",
      "geometry": {
        "type": "Point",
        "coordinates": [
          1.9701656290197889,
          41.26381464802977
        ]
      },
      "properties": {
        "date": "2025-01-14"
      }
    },
    {
      "type": "Feature",
      "geometry": {
        "type": "Point",
        "coordinates": [
          1.9702849908722988,
          41.26381571572901
        ]
      },
      "properties": {
        "date": "2025-01-14"
      }
    },
    {
      "type": "Feature",
      "geometry": {
        "type": "Point",
        "coordinates": [
          1.97040435273123,
          41.263816783304534
        ]
      },
      "properties": {
        "date": "2025-01-14"
      }
    },
    {
      "type": "Feature",
      "geometry": {
        "type": "Point",
        "coordinates": [
          1.9705237145965846,
          41.26381785075634
        ]
      },
      "properties": {
        "date": "2025-01-14"
      }
    },
    {
      "type": "Feature",
      "geometry": {
        "type": "Point",
        "coordinates": [
          1.970643076468361,
          41.26381891808442
        ]
      },
      "properties": {
        "date": "2025-01-14"
      }
    },
    {
      "type": "Feature",
      "geometry": {
        "type": "Point",
        "coordinates": [
          1.970762438346558,
          41.26381998528876
        ]
      },
      "properties": {
        "date": "2025-01-14"
      }
    },
    {
      "type": "Feature",
      "geometry": {
        "type": "Point",
        "coordinates": [
          1.9708818002311752,
          41.2638210523694
        ]
      },
      "properties": {
        "date": "2025-01-14"
      }
    },
    {
      "type": "Feature",
      "geometry": {
        "type": "Point",
        "coordinates": [
          1.9710011621222114,
          41.26382211932631
        ]
      },
      "properties": {
        "date": "2025-01-14"
      }
    },
    {
      "type": "Feature",
      "geometry": {
        "type": "Point",
        "coordinates": [
          1.9711205240196665,
          41.2638231861595
        ]
      },
      "properties": {
        "date": "2025-01-14"
      }
    },
    {
      "type": "Feature",
      "geometry": {
        "type": "Point",
        "coordinates": [
          1.9712398859235398,
          41.26382425286897
        ]
      },
      "properties": {
        "date": "2025-01-14"
      }
    },
    {
      "type": "Feature",
      "geometry": {
        "type": "Point",
        "coordinates": [
          1.97135924783383,
          41.263825319454725
        ]
      },
      "properties": {
        "date": "2025-01-14"
      }
    },
    {
      "type": "Feature",
      "geometry": {
        "type": "Point",
        "coordinates": [
          1.971478609750537,
          41.263826385916744
        ]
      },
      "properties": {
        "date": "2025-01-14"
      }
    },
    {
      "type": "Feature",
      "geometry": {
        "type": "Point",
        "coordinates": [
          1.971597971673659,
          41.26382745225504
        ]
      },
      "properties": {
        "date": "2025-01-14"
      }
    },
    {
      "type": "Feature",
      "geometry": {
        "type": "Point",
        "coordinates": [
          1.9717173336031963,
          41.26382851846962
        ]
      },
      "properties": {
        "date": "2025-01-14"
      }
    },
    {
      "type": "Feature",
      "geometry": {
        "type": "Point",
        "coordinates": [
          1.971836695539148,
          41.26382958456047
        ]
      },
      "properties": {
        "date": "2025-01-14"
      }
    },
    {
      "type": "Feature",
      "geometry": {
        "type": "Point",
        "coordinates": [
          1.9719560574815127,
          41.26383065052761
        ]
      },
      "properties": {
        "date": "2025-01-14"
      }
    },
    {
      "type": "Feature",
      "geometry": {
        "type": "Point",
        "coordinates": [
          1.9720754194302903,
          41.26383171637102
        ]
      },
      "properties": {
        "date": "2025-01-14"
      }
    },
    {
      "type": "Feature",
      "geometry": {
        "type": "Point",
        "coordinates": [
          1.9721947813854797,
          41.26383278209071
        ]
      },
      "properties": {
        "date": "2025-01-14"
      }
    },
    {
      "type": "Feature",
      "geometry": {
        "type": "Point",
        "coordinates": [
          1.9723141433470806,
          41.26383384768668
        ]
      },
      "properties": {
        "date": "2025-01-14"
      }
    },
    {
      "type": "Feature",
      "geometry": {
        "type": "Point",
        "coordinates": [
          1.9724335053150917,
          41.263834913158924
        ]
      },
      "properties": {
        "date": "2025-01-14"
      }
    },
    {
      "type": "Feature",
      "geometry": {
        "type": "Point",
        "coordinates": [
          1.972552867289513,
          41.263835978507444
        ]
      },
      "properties": {
        "date": "2025-01-14"
      }
    },
    {
      "type": "Feature",
      "geometry": {
        "type": "Point",
        "coordinates": [
          1.9726722292703422,
          41.26383704373225
        ]
      },
      "properties": {
        "date": "2025-01-14"
      }
    },
    {
      "type": "Feature",
      "geometry": {
        "type": "Point",
        "coordinates": [
          1.9727915912575809,
          41.26383810883332
        ]
      },
      "properties": {
        "date": "2025-01-14"
      }
    },
    {
      "type": "Feature",
      "geometry": {
        "type": "Point",
        "coordinates": [
          1.9729109532512261,
          41.26383917381069
        ]
      },
      "properties": {
        "date": "2025-01-14"
      }
    },
    {
      "type": "Feature",
      "geometry": {
        "type": "Point",
        "coordinates": [
          1.9730303152512783,
          41.263840238664315
        ]
      },
      "properties": {
        "date": "2025-01-14"
      }
    },
    {
      "type": "Feature",
      "geometry": {
        "type": "Point",
        "coordinates": [
          1.9731496772577368,
          41.26384130339422
        ]
      },
      "properties": {
        "date": "2025-01-14"
      }
    },
    {
      "type": "Feature",
      "geometry": {
        "type": "Point",
        "coordinates": [
          1.9732690392706003,
          41.263842368000425
        ]
      },
      "properties": {
        "date": "2025-01-14"
      }
    },
    {
      "type": "Feature",
      "geometry": {
        "type": "Point",
        "coordinates": [
          1.9733884012898686,
          41.26384343248288
        ]
      },
      "properties": {
        "date": "2025-01-14"
      }
    },
    {
      "type": "Feature",
      "geometry": {
        "type": "Point",
        "coordinates": [
          1.97350776331554,
          41.26384449684162
        ]
      },
      "properties": {
        "date": "2025-01-14"
      }
    },
    {
      "type": "Feature",
      "geometry": {
        "type": "Point",
        "coordinates": [
          1.9736271253476156,
          41.26384556107664
        ]
      },
      "properties": {
        "date": "2025-01-14"
      }
    },
    {
      "type": "Feature",
      "geometry": {
        "type": "Point",
        "coordinates": [
          1.9737464873860924,
          41.263846625187945
        ]
      },
      "properties": {
        "date": "2025-01-14"
      }
    },
    {
      "type": "Feature",
      "geometry": {
        "type": "Point",
        "coordinates": [
          1.9738658494309713,
          41.26384768917551
        ]
      },
      "properties": {
        "date": "2025-01-14"
      }
    },
    {
      "type": "Feature",
      "geometry": {
        "type": "Point",
        "coordinates": [
          1.9739852114822507,
          41.263848753039376
        ]
      },
      "properties": {
        "date": "2025-01-14"
      }
    },
    {
      "type": "Feature",
      "geometry": {
        "type": "Point",
        "coordinates": [
          1.97410457353993,
          41.263849816779505
        ]
      },
      "properties": {
        "date": "2025-01-14"
      }
    },
    {
      "type": "Feature",
      "geometry": {
        "type": "Point",
        "coordinates": [
          1.9742239356040088,
          41.263850880395914
        ]
      },
      "properties": {
        "date": "2025-01-14"
      }
    },
    {
      "type": "Feature",
      "geometry": {
        "type": "Point",
        "coordinates": [
          1.9743432976744864,
          41.2638519438886
        ]
      },
      "properties": {
        "date": "2025-01-14"
      }
    },
    {
      "type": "Feature",
      "geometry": {
        "type": "Point",
        "coordinates": [
          1.9744626597513617,
          41.26385300725755
        ]
      },
      "properties": {
        "date": "2025-01-14"
      }
    },
    {
      "type": "Feature",
      "geometry": {
        "type": "Point",
        "coordinates": [
          1.974582021834634,
          41.26385407050281
        ]
      },
      "properties": {
        "date": "2025-01-14"
      }
    },
    {
      "type": "Feature",
      "geometry": {
        "type": "Point",
        "coordinates": [
          1.9747013839243024,
          41.26385513362432
        ]
      },
      "properties": {
        "date": "2025-01-14"
      }
    },
    {
      "type": "Feature",
      "geometry": {
        "type": "Point",
        "coordinates": [
          1.9748207460203668,
          41.2638561966221
        ]
      },
      "properties": {
        "date": "2025-01-14"
      }
    },
    {
      "type": "Feature",
      "geometry": {
        "type": "Point",
        "coordinates": [
          1.9749401081228257,
          41.263857259496184
        ]
      },
      "properties": {
        "date": "2025-01-14"
      }
    },
    {
      "type": "Feature",
      "geometry": {
        "type": "Point",
        "coordinates": [
          1.975059470231679,
          41.26385832224653
        ]
      },
      "properties": {
        "date": "2025-01-14"
      }
    },
    {
      "type": "Feature",
      "geometry": {
        "type": "Point",
        "coordinates": [
          1.975178832346925,
          41.26385938487316
        ]
      },
      "properties": {
        "date": "2025-01-14"
      }
    },
    {
      "type": "Feature",
      "geometry": {
        "type": "Point",
        "coordinates": [
          1.9752981944685646,
          41.26386044737606
        ]
      },
      "properties": {
        "date": "2025-01-14"
      }
    },
    {
      "type": "Feature",
      "geometry": {
        "type": "Point",
        "coordinates": [
          1.9754175565965955,
          41.26386150975524
        ]
      },
      "properties": {
        "date": "2025-01-14"
      }
    },
    {
      "type": "Feature",
      "geometry": {
        "type": "Point",
        "coordinates": [
          1.9755369187310172,
          41.2638625720107
        ]
      },
      "properties": {
        "date": "2025-01-14"
      }
    },
    {
      "type": "Feature",
      "geometry": {
        "type": "Point",
        "coordinates": [
          1.9756562808718297,
          41.26386363414244
        ]
      },
      "properties": {
        "date": "2025-01-14"
      }
    },
    {
      "type": "Feature",
      "geometry": {
        "type": "Point",
        "coordinates": [
          1.975775643019032,
          41.26386469615044
        ]
      },
      "properties": {
        "date": "2025-01-14"
      }
    },
    {
      "type": "Feature",
      "geometry": {
        "type": "Point",
        "coordinates": [
          1.9758950051726227,
          41.26386575803474
        ]
      },
      "properties": {
        "date": "2025-01-14"
      }
    },
    {
      "type": "Feature",
      "geometry": {
        "type": "Point",
        "coordinates": [
          1.976014367332602,
          41.263866819795304
        ]
      },
      "properties": {
        "date": "2025-01-14"
      }
    },
    {
      "type": "Feature",
      "geometry": {
        "type": "Point",
        "coordinates": [
          1.9761337294989685,
          41.26386788143215
        ]
      },
      "properties": {
        "date": "2025-01-14"
      }
    },
    {
      "type": "Feature",
      "geometry": {
        "type": "Point",
        "coordinates": [
          1.976253091671722,
          41.263868942945265
        ]
      },
      "properties": {
        "date": "2025-01-14"
      }
    },
    {
      "type": "Feature",
      "geometry": {
        "type": "Point",
        "coordinates": [
          1.976372453850861,
          41.263870004334656
        ]
      },
      "properties": {
        "date": "2025-01-14"
      }
    },
    {
      "type": "Feature",
      "geometry": {
        "type": "Point",
        "coordinates": [
          1.9764918160363851,
          41.26387106560034
        ]
      },
      "properties": {
        "date": "2025-01-14"
      }
    },
    {
      "type": "Feature",
      "geometry": {
        "type": "Point",
        "coordinates": [
          1.9766111782282938,
          41.263872126742285
        ]
      },
      "properties": {
        "date": "2025-01-14"
      }
    },
    {
      "type": "Feature",
      "geometry": {
        "type": "Point",
        "coordinates": [
          1.976730540426586,
          41.263873187760524
        ]
      },
      "properties": {
        "date": "2025-01-14"
      }
    },
    {
      "type": "Feature",
      "geometry": {
        "type": "Point",
        "coordinates": [
          1.9768499026312616,
          41.26387424865503
        ]
      },
      "properties": {
        "date": "2025-01-14"
      }
    },
    {
      "type": "Feature",
      "geometry": {
        "type": "Point",
        "coordinates": [
          1.976969264842319,
          41.26387530942581
        ]
      },
      "properties": {
        "date": "2025-01-14"
      }
    },
    {
      "type": "Feature",
      "geometry": {
        "type": "Point",
        "coordinates": [
          1.9770886270597576,
          41.263876370072865
        ]
      },
      "properties": {
        "date": "2025-01-14"
      }
    },
    {
      "type": "Feature",
      "geometry": {
        "type": "Point",
        "coordinates": [
          1.9772079892835777,
          41.2638774305962
        ]
      },
      "properties": {
        "date": "2025-01-14"
      }
    },
    {
      "type": "Feature",
      "geometry": {
        "type": "Point",
        "coordinates": [
          1.9773273515137768,
          41.263878490995815
        ]
      },
      "properties": {
        "date": "2025-01-14"
      }
    },
    {
      "type": "Feature",
      "geometry": {
        "type": "Point",
        "coordinates": [
          1.9774467137503555,
          41.26387955127171
        ]
      },
      "properties": {
        "date": "2025-01-14"
      }
    },
    {
      "type": "Feature",
      "geometry": {
        "type": "Point",
        "coordinates": [
          1.9775660759933131,
          41.26388061142387
        ]
      },
      "properties": {
        "date": "2025-01-14"
      }
    },
    {
      "type": "Feature",
      "geometry": {
        "type": "Point",
        "coordinates": [
          1.9776854382426479,
          41.26388167145232
        ]
      },
      "properties": {
        "date": "2025-01-14"
      }
    },
    {
      "type": "Feature",
      "geometry": {
        "type": "Point",
        "coordinates": [
          1.97780480049836,
          41.263882731357036
        ]
      },
      "properties": {
        "date": "2025-01-14"
      }
    },
    {
      "type": "Feature",
      "geometry": {
        "type": "Point",
        "coordinates": [
          1.977924162760448,
          41.263883791138035
        ]
      },
      "properties": {
        "date": "2025-01-14"
      }
    },
    {
      "type": "Feature",
      "geometry": {
        "type": "Point",
        "coordinates": [
          1.9780435250289123,
          41.26388485079531
        ]
      },
      "properties": {
        "date": "2025-01-14"
      }
    },
    {
      "type": "Feature",
      "geometry": {
        "type": "Point",
        "coordinates": [
          1.9781628873037505,
          41.26388591032886
        ]
      },
      "properties": {
        "date": "2025-01-14"
      }
    },
    {
      "type": "Feature",
      "geometry": {
        "type": "Point",
        "coordinates": [
          1.9782822495849628,
          41.263886969738685
        ]
      },
      "properties": {
        "date": "2025-01-14"
      }
    },
    {
      "type": "Feature",
      "geometry": {
        "type": "Point",
        "coordinates": [
          1.946414196912868,
          41.263509650843176
        ]
      },
      "properties": {
        "date": "2025-01-14"
      }
    },
    {
      "type": "Feature",
      "geometry": {
        "type": "Point",
        "coordinates": [
          1.9465335573084352,
          41.26351074315927
        ]
      },
      "properties": {
        "date": "2025-01-14"
      }
    },
    {
      "type": "Feature",
      "geometry": {
        "type": "Point",
        "coordinates": [
          1.946652917710574,
          41.263511835351665
        ]
      },
      "properties": {
        "date": "2025-01-14"
      }
    },
    {
      "type": "Feature",
      "geometry": {
        "type": "Point",
        "coordinates": [
          1.9477271616253973,
          41.263521659515796
        ]
      },
      "properties": {
        "date": "2025-01-14"
      }
    },
    {
      "type": "Feature",
      "geometry": {
        "type": "Point",
        "coordinates": [
          1.947846522093206,
          41.263522750471004
        ]
      },
      "properties": {
        "date": "2025-01-14"
      }
    },
    {
      "type": "Feature",
      "geometry": {
        "type": "Point",
        "coordinates": [
          1.9479658825675774,
          41.26352384130249
        ]
      },
      "properties": {
        "date": "2025-01-14"
      }
    },
    {
      "type": "Feature",
      "geometry": {
        "type": "Point",
        "coordinates": [
          1.9480852430485112,
          41.263524932010256
        ]
      },
      "properties": {
        "date": "2025-01-14"
      }
    },
    {
      "type": "Feature",
      "geometry": {
        "type": "Point",
        "coordinates": [
          1.9482046035360066,
          41.263526022594306
        ]
      },
      "properties": {
        "date": "2025-01-14"
      }
    },
    {
      "type": "Feature",
      "geometry": {
        "type": "Point",
        "coordinates": [
          1.9483239640300625,
          41.263527113054636
        ]
      },
      "properties": {
        "date": "2025-01-14"
      }
    },
    {
      "type": "Feature",
      "geometry": {
        "type": "Point",
        "coordinates": [
          1.978283653542685,
          41.26379690583918
        ]
      },
      "properties": {
        "date": "2025-01-14"
      }
    },
    {
      "type": "Feature",
      "geometry": {
        "type": "Point",
        "coordinates": [
          1.9782850574940345,
          41.26370684193821
        ]
      },
      "properties": {
        "date": "2025-01-14"
      }
    },
    {
      "type": "Feature",
      "geometry": {
        "type": "Point",
        "coordinates": [
          1.9780477378666428,
          41.26361465911245
        ]
      },
      "properties": {
        "date": "2025-01-14"
      }
    },
    {
      "type": "Feature",
      "geometry": {
        "type": "Point",
        "coordinates": [
          1.9781670996496397,
          41.26361571863598
        ]
      },
      "properties": {
        "date": "2025-01-14"
      }
    },
    {
      "type": "Feature",
      "geometry": {
        "type": "Point",
        "coordinates": [
          1.97828646143901,
          41.263616778035804
        ]
      },
      "properties": {
        "date": "2025-01-14"
      }
    },
    {
      "type": "Feature",
      "geometry": {
        "type": "Point",
        "coordinates": [
          1.9780491421331368,
          41.263524595215245
        ]
      },
      "properties": {
        "date": "2025-01-14"
      }
    },
    {
      "type": "Feature",
      "geometry": {
        "type": "Polygon",
        "coordinates": [
          [
            [
              1.9462356856159317,
              41.264465013042155
            ],
            [
              1.9462356856159317,
              41.26341613943984
            ],
            [
              2.0028501773516894,
              41.26341613943984
            ],
            [
              2.0028501773516894,
              41.264465013042155
            ],
            [
              1.9462356856159317,
              41.264465013042155
            ]
          ]
        ]
      },
      "properties": {
        "name": "AOI"
      }
    }
  ]
}