{
  "type": "FeatureCollection",
  "features": [
    {
      "type": "Feature",
      "geometry": {
        "type": "Point",
        "coordinates": [
          1.951899021101925,
          41.26392002193715
        ]
      },
      "properties": {
        "date": "2025-03-27"
      }
    },
    {
      "type": "Feature",
      "geometry": {
        "type": "Point",
        "coordinates": [
          1.9520183824547601,
          41.26392110857591
        ]
      },
      "properties": {
        "date": "2025-03-27"
      }
    },
    {
      "type": "Feature",
      "geometry": {
        "type": "Point",
        "coordinates": [
          1.9521377438141327,
          41.26392219509093
        ]
      },
      "properties": {
        "date": "2025-03-27"
      }
    },
    {
      "type": "Feature",
      "geometry": {
        "type": "Point",
        "coordinates": [
          1.9522571051800413,
          41.26392328148224
        ]
      },
      "properties": {
        "date": "2025-03-27"
      }
    },
    {
      "type": "Feature",
      "geometry": {
        "type": "Point",
        "coordinates": [
          1.9523764665524852,
          41.26392436774984
        ]
      },
      "properties": {
        "date": "2025-03-27"
      }
    },
    {
      "type": "Feature",
      "geometry": {
        "type": "Point",
        "coordinates": [
          1.9524958279314644,
          41.263925453893705
        ]
      },
      "properties": {
        "date": "2025-03-27"
      }
    },
    {
      "type": "Feature",
      "geometry": {
        "type": "Point",
        "coordinates": [
          1.9526151893169774,
          41.26392653991386
        ]
      },
      "properties": {
        "date": "2025-03-27"
      }
    },
    {
      "type": "Feature",
      "geometry": {
        "type": "Point",
        "coordinates": [
          1.9527345507090235,
          41.2639276258103
        ]
      },
      "properties": {
        "date": "2025-03-27"
      }
    },
    {
      "type": "Feature",
      "geometry": {
        "type": "Point",
        "coordinates": [
          1.9528539121076027,
          41.263928711583
        ]
      },
      "properties": {
        "date": "2025-03-27"
      }
    },
    {
      "type": "Feature",
      "geometry": {
        "type": "Point",
        "coordinates": [
          1.9529732735127137,
          41.26392979723199
        ]
      },
      "properties": {
        "date": "2025-03-27"
      }
    },
    {
      "type": "Feature",
      "geometry": {
        "type": "Point",
        "coordinates": [
          1.9530926349243554,
          41.26393088275726
        ]
      },
      "properties": {
        "date": "2025-03-27"
      }
    },
    {
      "type": "Feature",
      "geometry": {
        "type": "Point",
        "coordinates": [
          1.9532119963425274,
          41.26393196815881
        ]
      },
      "properties": {
        "date": "2025-03-27"
      }
    },
    {
      "type": "Feature",
      "geometry": {
        "type": "Point",
        "coordinates": [
          1.95345071919846,
          41.263934138590756
        ]
      },
      "properties": {
        "date": "2025-03-27"
      }
    },
    {
      "type": "Feature",
      "geometry": {
        "type": "Point",
        "coordinates": [
          1.9536894420805044,
          41.26393630852781
        ]
      },
      "properties": {
        "date": "2025-03-27"
      }
    },
    {
      "type": "Feature",
      "geometry": {
        "type": "Point",
        "coordinates": [
          1.9538088035313173,
          41.263937393310755
        ]
      },
      "properties": {
        "date": "2025-03-27"
      }
    },
    {
      "type": "Feature",
      "geometry": {
        "type": "Point",
        "coordinates": [
          1.9548830568822066,
          41.26394715078985
        ]
      },
      "properties": {
        "date": "2025-03-27"
      }
    },
    {
      "type": "Feature",
      "geometry": {
        "type": "Point",
        "coordinates": [
          1.9550024183982446,
          41.26394823433559
        ]
      },
      "properties": {
        "date": "2025-03-27"
      }
    },
    {
      "type": "Feature",
      "geometry": {
        "type": "Point",
        "coordinates": [
          1.9551217799208005,
          41.26394931775762
        ]
      },
      "properties": {
        "date": "2025-03-27"
      }
    },
    {
      "type": "Feature",
      "geometry": {
        "type": "Point",
        "coordinates": [
          1.955241141449875,
          41.263950401055915
        ]
      },
      "properties": {
        "date": "2025-03-27"
      }
    },
    {
      "type": "Feature",
      "geometry": {
        "type": "Point",
        "coordinates": [
          1.955360502985466,
          41.263951484230496
        ]
      },
      "properties": {
        "date": "2025-03-27"
      }
    },
    {
      "type": "Feature",
      "geometry": {
        "type": "Point",
        "coordinates": [
          1.955479864527573,
          41.26395256728135
        ]
      },
      "properties": {
        "date": "2025-03-27"
      }
    },
    {
      "type": "Feature",
      "geometry": {
        "type": "Point",
        "coordinates": [
          1.955599226076196,
          41.263953650208485
        ]
      },
      "properties": {
        "date": "2025-03-27"
      }
    },
    {
      "type": "Feature",
      "geometry": {
        "type": "Point",
        "coordinates": [
          1.9557185876313332,
          41.263954733011914
        ]
      },
      "properties": {
        "date": "2025-03-27"
      }
    },
    {
      "type": "Feature",
      "geometry": {
        "type": "Point",
        "coordinates": [
          1.9558379491929847,
          41.26395581569161
        ]
      },
      "properties": {
        "date": "2025-03-27"
      }
    },
    {
      "type": "Feature",
      "geometry": {
        "type": "Point",
        "coordinates": [
          1.955957310761149,
          41.26395689824758
        ]
      },
      "properties": {
        "date": "2025-03-27"
      }
    },
    {
      "type": "Feature",
      "geometry": {
        "type": "Point",
        "coordinates": [
          1.9560766723358263,
          41.26395798067983
        ]
      },
      "properties": {
        "date": "2025-03-27"
      }
    },
    {
      "type": "Feature",
      "geometry": {
        "type": "Point",
        "coordinates": [
          1.9561960339170148,
          41.26395906298837
        ]
      },
      "properties": {
        "date": "2025-03-27"
      }
    },
    {
      "type": "Feature",
      "geometry": {
        "type": "Point",
        "coordinates": [
          1.9563153955047148,
          41.26396014517318
        ]
      },
      "properties": {
        "date": "2025-03-27"
      }
    },
    {
      "type": "Feature",
      "geometry": {
        "type": "Point",
        "coordinates": [
          1.9564347570989251,
          41.26396122723426
        ]
      },
      "properties": {
        "date": "2025-03-27"
      }
    },
    {
      "type": "Feature",
      "geometry": {
        "type": "Point",
        "coordinates": [
          1.9565541186996442,
          41.26396230917164
        ]
      },
      "properties": {
        "date": "2025-03-27"
      }
    },
    {
      "type": "Feature",
      "geometry": {
        "type": "Point",
        "coordinates": [
          1.9566734803068728,
          41.26396339098529
        ]
      },
      "properties": {
        "date": "2025-03-27"
      }
    },
    {
      "type": "Feature",
      "geometry": {
        "type": "Point",
        "coordinates": [
          1.9567928419206089,
          41.26396447267521
        ]
      },
      "properties": {
        "date": "2025-03-27"
      }
    },
    {
      "type": "Feature",
      "geometry": {
        "type": "Point",
        "coordinates": [
          1.9569122035408524,
          41.263965554241416
        ]
      },
      "properties": {
        "date": "2025-03-27"
      }
    },
    {
      "type": "Feature",
      "geometry": {
        "type": "Point",
        "coordinates": [
          1.9570315651676027,
          41.263966635683914
        ]
      },
      "properties": {
        "date": "2025-03-27"
      }
    },
    {
      "type": "Feature",
      "geometry": {
        "type": "Point",
        "coordinates": [
          1.9571509268008587,
          41.26396771700267
        ]
      },
      "properties": {
        "date": "2025-03-27"
      }
    },
    {
      "type": "Feature",
      "geometry": {
        "type": "Point",
        "coordinates": [
          1.9572702884406195,
          41.26396879819772
        ]
      },
      "properties": {
        "date": "2025-03-27"
      }
    },
    {
      "type": "Feature",
      "geometry": {
        "type": "Point",
        "coordinates": [
          1.957389650086885,
          41.26396987926905
        ]
      },
      "properties": {
        "date": "2025-03-27"
      }
    },
    {
      "type": "Feature",
      "geometry": {
        "type": "Point",
        "coordinates": [
          1.9575090117396536,
          41.263970960216646
        ]
      },
      "properties": {
        "date": "2025-03-27"
      }
    },
    {
      "type": "Feature",
      "geometry": {
        "type": "Point",
        "coordinates": [
          1.9576283733989253,
          41.26397204104052
        ]
      },
      "properties": {
        "date": "2025-03-27"
      }
    },
    {
      "type": "Feature",
      "geometry": {
        "type": "Point",
        "coordinates": [
          1.9577477350646988,
          41.26397312174069
        ]
      },
      "properties": {
        "date": "2025-03-27"
      }
    },
    {
      "type": "Feature",
      "geometry": {
        "type": "Point",
        "coordinates": [
          1.9578670967369736,
          41.26397420231712
        ]
      },
      "properties": {
        "date": "2025-03-27"
      }
    },
    {
      "type": "Feature",
      "geometry": {
        "type": "Point",
        "coordinates": [
          1.9579864584157496,
          41.26397528276984
        ]
      },
      "properties": {
        "date": "2025-03-27"
      }
    },
    {
      "type": "Feature",
      "geometry": {
        "type": "Point",
        "coordinates": [
          1.958105820101025,
          41.26397636309884
        ]
      },
      "properties": {
        "date": "2025-03-27"
      }
    },
    {
      "type": "Feature",
      "geometry": {
        "type": "Point",
        "coordinates": [
          1.9582251817927991,
          41.26397744330412
        ]
      },
      "properties": {
        "date": "2025-03-27"
      }
    },
    {
      "type": "Feature",
      "geometry": {
        "type": "Point",
        "coordinates": [
          1.958344543491072,
          41.26397852338567
        ]
      },
      "properties": {
        "date": "2025-03-27"
      }
    },
    {
      "type": "Feature",
      "geometry": {
        "type": "Point",
        "coordinates": [
          1.9584639051958426,
          41.2639796033435
        ]
      },
      "properties": {
        "date": "2025-03-27"
      }
    },
    {
      "type": "Feature",
      "geometry": {
        "type": "Point",
        "coordinates": [
          1.95858326690711,
          41.26398068317761
        ]
      },
      "properties": {
        "date": "2025-03-27"
      }
    },
    {
      "type": "Feature",
      "geometry": {
        "type": "Point",
        "coordinates": [
          1.9587026286248737,
          41.263981762888
        ]
      },
      "properties": {
        "date": "2025-03-27"
      }
    },
    {
      "type": "Feature",
      "geometry": {
        "type": "Point",
        "coordinates": [
          1.9588219903491322,
          41.26398284247468
        ]
      },
      "properties": {
        "date": "2025-03-27"
      }
    },
    {
      "type": "Feature",
      "geometry": {
        "type": "Point",
        "coordinates": [
          1.9656256193445478,
          41.264044174402834
        ]
      },
      "properties": {
        "date": "2025-03-27"
      }
    },
    {
      "type": "Feature",
      "geometry": {
        "type": "Point",
        "coordinates": [
          1.9657449814442651,
          41.26404524681364
        ]
      },
      "properties": {
        "date": "2025-03-27"
      }
    },
    {
      "type": "Feature",
      "geometry": {
        "type": "Point",
        "coordinates": [
          1.9663417920396091,
          41.2640506070118
        ]
      },
      "properties": {
        "date": "2025-03-27"
      }
    },
    {
      "type": "Feature",
      "geometry": {
        "type": "Point",
        "coordinates": [
          1.9666998784741956,
          41.26405382164602
        ]
      },
      "properties": {
        "date": "2025-03-27"
      }
    },
    {
      "type": "Feature",
      "geometry": {
        "type": "Point",
        "coordinates": [
          1.9668192406319496,
          41.26405489294332
        ]
      },
      "properties": {
        "date": "2025-03-27"
      }
    },
    {
      "type": "Feature",
      "geometry": {
        "type": "Point",
        "coordinates": [
          1.9498713221006523,
          41.263811467059206
        ]
      },
      "properties": {
        "date": "2025-03-27"
      }
    },
    {
      "type": "Feature",
      "geometry": {
        "type": "Point",
        "coordinates": [
          1.9499906831783018,
          41.26381255579778
        ]
      },
      "properties": {
        "date": "2025-03-27"
      }
    },
    {
      "type": "Feature",
      "geometry": {
        "type": "Point",
        "coordinates": [
          1.9501100442625012,
          41.263813644412615
        ]
      },
      "properties": {
        "date": "2025-03-27"
      }
    },
    {
      "type": "Feature",
      "geometry": {
        "type": "Point",
        "coordinates": [
          1.9502294053532496,
          41.26381473290374
        ]
      },
      "properties": {
        "date": "2025-03-27"
      }
    },
    {
      "type": "Feature",
      "geometry": {
        "type": "Point",
        "coordinates": [
          1.9503487664505461,
          41.26381582127115
        ]
      },
      "properties": {
        "date": "2025-03-27"
      }
    },
    {
      "type": "Feature",
      "geometry": {
        "type": "Point",
        "coordinates": [
          1.95046812755439,
          41.26381690951483
        ]
      },
      "properties": {
        "date": "2025-03-27"
      }
    },
    {
      "type": "Feature",
      "geometry": {
        "type": "Point",
        "coordinates": [
          1.9505874886647805,
          41.2638179976348
        ]
      },
      "properties": {
        "date": "2025-03-27"
      }
    },
    {
      "type": "Feature",
      "geometry": {
        "type": "Point",
        "coordinates": [
          1.950706849781717,
          41.26381908563105
        ]
      },
      "properties": {
        "date": "2025-03-27"
      }
    },
    {
      "type": "Feature",
      "geometry": {
        "type": "Point",
        "coordinates": [
          1.9508262109051984,
          41.263820173503575
        ]
      },
      "properties": {
        "date": "2025-03-27"
      }
    },
    {
      "type": "Feature",
      "geometry": {
        "type": "Point",
        "coordinates": [
          1.950945572035225,
          41.26382126125238
        ]
      },
      "properties": {
        "date": "2025-03-27"
      }
    },
    {
      "type": "Feature",
      "geometry": {
        "type": "Point",
        "coordinates": [
          1.9510649331717946,
          41.26382234887747
        ]
      },
      "properties": {
        "date": "2025-03-27"
      }
    },
    {
      "type": "Feature",
      "geometry": {
        "type": "Point",
        "coordinates": [
          1.9511842943149071,
          41.263823436378836
        ]
      },
      "properties": {
        "date": "2025-03-27"
      }
    },
    {
      "type": "Feature",
      "geometry": {
        "type": "Point",
        "coordinates": [
          1.9513036554645626,
          41.26382452375649
        ]
      },
      "properties": {
        "date": "2025-03-27"
      }
    },
    {
      "type": "Feature",
      "geometry": {
        "type": "Point",
        "coordinates": [
          1.9514230166207587,
          41.26382561101042
        ]
      },
      "properties": {
        "date": "2025-03-27"
      }
    },
    {
      "type": "Feature",
      "geometry": {
        "type": "Point",
        "coordinates": [
          1.951542377783496,
          41.263826698140626
        ]
      },
      "properties": {
        "date": "2025-03-27"
      }
    },
    {
      "type": "Feature",
      "geometry": {
        "type": "Point",
        "coordinates": [
          1.9516617389527733,
          41.263827785147114
        ]
      },
      "properties": {
        "date": "2025-03-27"
      }
    },
    {
      "type": "Feature",
      "geometry": {
        "type": "Point",
        "coordinates": [
          1.9517811001285892,
          41.26382887202988
        ]
      },
      "properties": {
        "date": "2025-03-27"
      }
    },
    {
      "type": "Feature",
      "geometry": {
        "type": "Point",
        "coordinates": [
          1.951900461310944,
          41.26382995878893
        ]
      },
      "properties": {
        "date": "2025-03-27"
      }
    },
    {
      "type": "Feature",
      "geometry": {
        "type": "Point",
        "coordinates": [
          1.9532134347481744,
          41.26384190497298
        ]
      },
      "properties": {
        "date": "2025-03-27"
      }
    },
    {
      "type": "Feature",
      "geometry": {
        "type": "Point",
        "coordinates": [
          1.953332796008933,
          41.263842990247376
        ]
      },
      "properties": {
        "date": "2025-03-27"
      }
    },
    {
      "type": "Feature",
      "geometry": {
        "type": "Point",
        "coordinates": [
          1.9534521572762202,
          41.26384407539807
        ]
      },
      "properties": {
        "date": "2025-03-27"
      }
    },
    {
      "type": "Feature",
      "geometry": {
        "type": "Point",
        "coordinates": [
          1.9535715185500357,
          41.263845160425035
        ]
      },
      "properties": {
        "date": "2025-03-27"
      }
    },
    {
      "type": "Feature",
      "geometry": {
        "type": "Point",
        "coordinates": [
          1.9536908798303785,
          41.263846245328295
        ]
      },
      "properties": {
        "date": "2025-03-27"
      }
    },
    {
      "type": "Feature",
      "geometry": {
        "type": "Point",
        "coordinates": [
          1.9538102411172482,
          41.26384733010783
        ]
      },
      "properties": {
        "date": "2025-03-27"
      }
    },
    {
      "type": "Feature",
      "geometry": {
        "type": "Point",
        "coordinates": [
          1.9539296024106434,
          41.263848414763636
        ]
      },
      "properties": {
        "date": "2025-03-27"
      }
    },
    {
      "type": "Feature",
      "geometry": {
        "type": "Point",
        "coordinates": [
          1.9540489637105636,
          41.263849499295716
        ]
      },
      "properties": {
        "date": "2025-03-27"
      }
    },
    {
      "type": "Feature",
      "geometry": {
        "type": "Point",
        "coordinates": [
          1.9541683250170083,
          41.2638505837041
        ]
      },
      "properties": {
        "date": "2025-03-27"
      }
    },
    {
      "type": "Feature",
      "geometry": {
        "type": "Point",
        "coordinates": [
          1.9542876863299765,
          41.26385166798874
        ]
      },
      "properties": {
        "date": "2025-03-27"
      }
    },
    {
      "type": "Feature",
      "geometry": {
        "type": "Point",
        "coordinates": [
          1.954407047649468,
          41.26385275214966
        ]
      },
      "properties": {
        "date": "2025-03-27"
      }
    },
    {
      "type": "Feature",
      "geometry": {
        "type": "Point",
        "coordinates": [
          1.954526408975481,
          41.26385383618689
        ]
      },
      "properties": {
        "date": "2025-03-27"
      }
    },
    {
      "type": "Feature",
      "geometry": {
        "type": "Point",
        "coordinates": [
          1.9546457703080153,
          41.26385492010038
        ]
      },
      "properties": {
        "date": "2025-03-27"
      }
    },
    {
      "type": "Feature",
      "geometry": {
        "type": "Point",
        "coordinates": [
          1.9547651316470707,
          41.26385600389014
        ]
      },
      "properties": {
        "date": "2025-03-27"
      }
    },
    {
      "type": "Feature",
      "geometry": {
        "type": "Point",
        "coordinates": [
          1.9548844929926463,
          41.26385708755618
        ]
      },
      "properties": {
        "date": "2025-03-27"
      }
    },
    {
      "type": "Feature",
      "geometry": {
        "type": "Point",
        "coordinates": [
          1.9588234210494133,
          41.26389277912858
        ]
      },
      "properties": {
        "date": "2025-03-27"
      }
    },
    {
      "type": "Feature",
      "geometry": {
        "type": "Point",
        "coordinates": [
          1.958942782616222,
          41.26389385858813
        ]
      },
      "properties": {
        "date": "2025-03-27"
      }
    },
    {
      "type": "Feature",
      "geometry": {
        "type": "Point",
        "coordinates": [
          1.9590621441895246,
          41.26389493792396
        ]
      },
      "properties": {
        "date": "2025-03-27"
      }
    },
    {
      "type": "Feature",
      "geometry": {
        "type": "Point",
        "coordinates": [
          1.9591815057693198,
          41.26389601713606
        ]
      },
      "properties": {
        "date": "2025-03-27"
      }
    },
    {
      "type": "Feature",
      "geometry": {
        "type": "Point",
        "coordinates": [
          1.9593008673556085,
          41.26389709622445
        ]
      },
      "properties": {
        "date": "2025-03-27"
      }
    },
    {
      "type": "Feature",
      "geometry": {
        "type": "Point",
        "coordinates": [
          1.9594202289483877,
          41.26389817518911
        ]
      },
      "properties": {
        "date": "2025-03-27"
      }
    },
    {
      "type": "Feature",
      "geometry": {
        "type": "Point",
        "coordinates": [
          1.9595395905476582,
          41.26389925403006
        ]
      },
      "properties": {
        "date": "2025-03-27"
      }
    },
    {
      "type": "Feature",
      "geometry": {
        "type": "Point",
        "coordinates": [
          1.9596589521534187,
          41.26390033274727
        ]
      },
      "properties": {
        "date": "2025-03-27"
      }
    },
    {
      "type": "Feature",
      "geometry": {
        "type": "Point",
        "coordinates": [
          1.9597783137656686,
          41.263901411340775
        ]
      },
      "properties": {
        "date": "2025-03-27"
      }
    },
    {
      "type": "Feature",
      "geometry": {
        "type": "Point",
        "coordinates": [
          1.9598976753844075,
          41.263902489810555
        ]
      },
      "properties": {
        "date": "2025-03-27"
      }
    },
    {
      "type": "Feature",
      "geometry": {
        "type": "Point",
        "coordinates": [
          1.9600170370096337,
          41.263903568156614
        ]
      },
      "properties": {
        "date": "2025-03-27"
      }
    },
    {
      "type": "Feature",
      "geometry": {
        "type": "Point",
        "coordinates": [
          1.9601363986413474,
          41.263904646378954
        ]
      },
      "properties": {
        "date": "2025-03-27"
      }
    },
    {
      "type": "Feature",
      "geometry": {
        "type": "Point",
        "coordinates": [
          1.9602557602795476,
          41.26390572447757
        ]
      },
      "properties": {
        "date": "2025-03-27"
      }
    },
    {
      "type": "Feature",
      "geometry": {
        "type": "Point",
        "coordinates": [
          1.9603751219242336,
          41.26390680245246
        ]
      },
      "properties": {
        "date": "2025-03-27"
      }
    },
    {
      "type": "Feature",
      "geometry": {
        "type": "Point",
        "coordinates": [
          1.9604944835754043,
          41.263907880303634
        ]
      },
      "properties": {
        "date": "2025-03-27"
      }
    },
    {
      "type": "Feature",
      "geometry": {
        "type": "Point",
        "coordinates": [
          1.960613845233059,
          41.26390895803109
        ]
      },
      "properties": {
        "date": "2025-03-27"
      }
    },
    {
      "type": "Feature",
      "geometry": {
        "type": "Point",
        "coordinates": [
          1.9607332068971977,
          41.263910035634815
        ]
      },
      "properties": {
        "date": "2025-03-27"
      }
    },
    {
      "type": "Feature",
      "geometry": {
        "type": "Point",
        "coordinates": [
          1.9608525685678186,
          41.26391111311483
        ]
      },
      "properties": {
        "date": "2025-03-27"
      }
    },
    {
      "type": "Feature",
      "geometry": {
        "type": "Point",
        "coordinates": [
          1.9609719302449213,
          41.26391219047111
        ]
      },
      "properties": {
        "date": "2025-03-27"
      }
    },
    {
      "type": "Feature",
      "geometry": {
        "type": "Point",
        "coordinates": [
          1.961091291928505,
          41.263913267703686
        ]
      },
      "properties": {
        "date": "2025-03-27"
      }
    },
    {
      "type": "Feature",
      "geometry": {
        "type": "Point",
        "coordinates": [
          1.96121065361857,
          41.26391434481253
        ]
      },
      "properties": {
        "date": "2025-03-27"
      }
    },
    {
      "type": "Feature",
      "geometry": {
        "type": "Point",
        "coordinates": [
          1.961330015315114,
          41.263915421797655
        ]
      },
      "properties": {
        "date": "2025-03-27"
      }
    },
    {
      "type": "Feature",
      "geometry": {
        "type": "Point",
        "coordinates": [
          1.9614493770181376,
          41.26391649865905
        ]
      },
      "properties": {
        "date": "2025-03-27"
      }
    },
    {
      "type": "Feature",
      "geometry": {
        "type": "Point",
        "coordinates": [
          1.9615687387276393,
          41.26391757539673
        ]
      },
      "properties": {
        "date": "2025-03-27"
      }
    },
    {
      "type": "Feature",
      "geometry": {
        "type": "Point",
        "coordinates": [
          1.9616881004436182,
          41.2639186520107
        ]
      },
      "properties": {
        "date": "2025-03-27"
      }
    },
    {
      "type": "Feature",
      "geometry": {
        "type": "Point",
        "coordinates": [
          1.9618074621660735,
          41.26391972850094
        ]
      },
      "properties": {
        "date": "2025-03-27"
      }
    },
    {
      "type": "Feature",
      "geometry": {
        "type": "Point",
        "coordinates": [
          1.9619268238950056,
          41.26392080486745
        ]
      },
      "properties": {
        "date": "2025-03-27"
      }
    },
    {
      "type": "Feature",
      "geometry": {
        "type": "Point",
        "coordinates": [
          1.9620461856304126,
          41.26392188111025
        ]
      },
      "properties": {
        "date": "2025-03-27"
      }
    },
    {
      "type": "Feature",
      "geometry": {
        "type": "Point",
        "coordinates": [
          1.9621655473722939,
          41.26392295722932
        ]
      },
      "properties": {
        "date": "2025-03-27"
      }
    },
    {
      "type": "Feature",
      "geometry": {
        "type": "Point",
        "coordinates": [
          1.9622849091206493,
          41.263924033224676
        ]
      },
      "properties": {
        "date": "2025-03-27"
      }
    },
    {
      "type": "Feature",
      "geometry": {
        "type": "Point",
        "coordinates": [
          1.9624042708754774,
          41.26392510909631
        ]
      },
      "properties": {
        "date": "2025-03-27"
      }
    },
    {
      "type": "Feature",
      "geometry": {
        "type": "Point",
        "coordinates": [
          1.962523632636778,
          41.26392618484422
        ]
      },
      "properties": {
        "date": "2025-03-27"
      }
    },
    {
      "type": "Feature",
      "geometry": {
        "type": "Point",
        "coordinates": [
          1.96264299440455,
          41.26392726046841
        ]
      },
      "properties": {
        "date": "2025-03-27"
      }
    },
    {
      "type": "Feature",
      "geometry": {
        "type": "Point",
        "coordinates": [
          1.9627623561787928,
          41.26392833596888
        ]
      },
      "properties": {
        "date": "2025-03-27"
      }
    },
    {
      "type": "Feature",
      "geometry": {
        "type": "Point",
        "coordinates": [
          1.962881717959506,
          41.26392941134563
        ]
      },
      "properties": {
        "date": "2025-03-27"
      }
    },
    {
      "type": "Feature",
      "geometry": {
        "type": "Point",
        "coordinates": [
          1.9630010797466884,
          41.26393048659864
        ]
      },
      "properties": {
        "date": "2025-03-27"
      }
    },
    {
      "type": "Feature",
      "geometry": {
        "type": "Point",
        "coordinates": [
          1.963359165147043,
          41.26393371161539
        ]
      },
      "properties": {
        "date": "2025-03-27"
      }
    },
    {
      "type": "Feature",
      "geometry": {
        "type": "Point",
        "coordinates": [
          1.9634785269600952,
          41.263934786373525
        ]
      },
      "properties": {
        "date": "2025-03-27"
      }
    },
    {
      "type": "Feature",
      "geometry": {
        "type": "Point",
        "coordinates": [
          1.9635978887796128,
          41.26393586100794
        ]
      },
      "properties": {
        "date": "2025-03-27"
      }
    },
    {
      "type": "Feature",
      "geometry": {
        "type": "Point",
        "coordinates": [
          1.9637172506055947,
          41.263936935518636
        ]
      },
      "properties": {
        "date": "2025-03-27"
      }
    },
    {
      "type": "Feature",
      "geometry": {
        "type": "Point",
        "coordinates": [
          1.9638366124380415,
          41.2639380099056
        ]
      },
      "properties": {
        "date": "2025-03-27"
      }
    },
    {
      "type": "Feature",
      "geometry": {
        "type": "Point",
        "coordinates": [
          1.9639559742769512,
          41.263939084168854
        ]
      },
      "properties": {
        "date": "2025-03-27"
      }
    },
    {
      "type": "Feature",
      "geometry": {
        "type": "Point",
        "coordinates": [
          1.9640753361223235,
          41.26394015830839
        ]
      },
      "properties": {
        "date": "2025-03-27"
      }
    },
    {
      "type": "Feature",
      "geometry": {
        "type": "Point",
        "coordinates": [
          1.9641946979741578,
          41.263941232324186
        ]
      },
      "properties": {
        "date": "2025-03-27"
      }
    },
    {
      "type": "Feature",
      "geometry": {
        "type": "Point",
        "coordinates": [
          1.9643140598324536,
          41.26394230621628
        ]
      },
      "properties": {
        "date": "2025-03-27"
      }
    },
    {
      "type": "Feature",
      "geometry": {
        "type": "Point",
        "coordinates": [
          1.9644334216972088,
          41.26394337998464
        ]
      },
      "properties": {
        "date": "2025-03-27"
      }
    },
    {
      "type": "Feature",
      "geometry": {
        "type": "Point",
        "coordinates": [
          1.9645527835684242,
          41.263944453629286
        ]
      },
      "properties": {
        "date": "2025-03-27"
      }
    },
    {
      "type": "Feature",
      "geometry": {
        "type": "Point",
        "coordinates": [
          1.9646721454460987,
          41.2639455271502
        ]
      },
      "properties": {
        "date": "2025-03-27"
      }
    },
    {
      "type": "Feature",
      "geometry": {
        "type": "Point",
        "coordinates": [
          1.9647915073302311,
          41.26394660054739
        ]
      },
      "properties": {
        "date": "2025-03-27"
      }
    },
    {
      "type": "Feature",
      "geometry": {
        "type": "Point",
        "coordinates": [
          1.9649108692208208,
          41.26394767382088
        ]
      },
      "properties": {
        "date": "2025-03-27"
      }
    },
    {
      "type": "Feature",
      "geometry": {
        "type": "Point",
        "coordinates": [
          1.9650302311178676,
          41.26394874697063
        ]
      },
      "properties": {
        "date": "2025-03-27"
      }
    },
    {
      "type": "Feature",
      "geometry": {
        "type": "Point",
        "coordinates": [
          1.9651495930213696,
          41.26394981999667
        ]
      },
      "properties": {
        "date": "2025-03-27"
      }
    },
    {
      "type": "Feature",
      "geometry": {
        "type": "Point",
        "coordinates": [
          1.9652689549313274,
          41.26395089289896
        ]
      },
      "properties": {
        "date": "2025-03-27"
      }
    },
    {
      "type": "Feature",
      "geometry": {
        "type": "Point",
        "coordinates": [
          1.9653883168477397,
          41.263951965677556
        ]
      },
      "properties": {
        "date": "2025-03-27"
      }
    },
    {
      "type": "Feature",
      "geometry": {
        "type": "Point",
        "coordinates": [
          1.965507678770605,
          41.26395303833242
        ]
      },
      "properties": {
        "date": "2025-03-27"
      }
    },
    {
      "type": "Feature",
      "geometry": {
        "type": "Point",
        "coordinates": [
          1.9656270406999237,
          41.263954110863565
        ]
      },
      "properties": {
        "date": "2025-03-27"
      }
    },
    {
      "type": "Feature",
      "geometry": {
        "type": "Point",
        "coordinates": [
          1.9657464026356948,
          41.263955183270994
        ]
      },
      "properties": {
        "date": "2025-03-27"
      }
    },
    {
      "type": "Feature",
      "geometry": {
        "type": "Point",
        "coordinates": [
          1.965865764577917,
          41.26395625555468
        ]
      },
      "properties": {
        "date": "2025-03-27"
      }
    },
    {
      "type": "Feature",
      "geometry": {
        "type": "Point",
        "coordinates": [
          1.96598512652659,
          41.26395732771467
        ]
      },
      "properties": {
        "date": "2025-03-27"
      }
    },
    {
      "type": "Feature",
      "geometry": {
        "type": "Point",
        "coordinates": [
          1.9661044884817125,
          41.26395839975093
        ]
      },
      "properties": {
        "date": "2025-03-27"
      }
    },
    {
      "type": "Feature",
      "geometry": {
        "type": "Point",
        "coordinates": [
          1.9662238504432845,
          41.263959471663455
        ]
      },
      "properties": {
        "date": "2025-03-27"
      }
    },
    {
      "type": "Feature",
      "geometry": {
        "type": "Point",
        "coordinates": [
          1.966343212411305,
          41.26396054345227
        ]
      },
      "properties": {
        "date": "2025-03-27"
      }
    },
    {
      "type": "Feature",
      "geometry": {
        "type": "Point",
        "coordinates": [
          1.9664625743857735,
          41.26396161511736
        ]
      },
      "properties": {
        "date": "2025-03-27"
      }
    },
    {
      "type": "Feature",
      "geometry": {
        "type": "Point",
        "coordinates": [
          1.9665819363666888,
          41.26396268665872
        ]
      },
      "properties": {
        "date": "2025-03-27"
      }
    },
    {
      "type": "Feature",
      "geometry": {
        "type": "Point",
        "coordinates": [
          1.96670129835405,
          41.263963758076365
        ]
      },
      "properties": {
        "date": "2025-03-27"
      }
    },
    {
      "type": "Feature",
      "geometry": {
        "type": "Point",
        "coordinates": [
          1.966820660347857,
          41.26396482937029
        ]
      },
      "properties": {
        "date": "2025-03-27"
      }
    },
    {
      "type": "Feature",
      "geometry": {
        "type": "Point",
        "coordinates": [
          1.9669400223481088,
          41.26396590054049
        ]
      },
      "properties": {
        "date": "2025-03-27"
      }
    },
    {
      "type": "Feature",
      "geometry": {
        "type": "Point",
        "coordinates": [
          1.9670593843548048,
          41.26396697158696
        ]
      },
      "properties": {
        "date": "2025-03-27"
      }
    },
    {
      "type": "Feature",
      "geometry": {
        "type": "Point",
        "coordinates": [
          1.9671787463679438,
          41.263968042509724
        ]
      },
      "properties": {
        "date": "2025-03-27"
      }
    },
    {
      "type": "Feature",
      "geometry": {
        "type": "Point",
        "coordinates": [
          1.9672981083875254,
          41.26396911330876
        ]
      },
      "properties": {
        "date": "2025-03-27"
      }
    },
    {
      "type": "Feature",
      "geometry": {
        "type": "Point",
        "coordinates": [
          1.9674174704135488,
          41.26397018398407
        ]
      },
      "properties": {
        "date": "2025-03-27"
      }
    },
    {
      "type": "Feature",
      "geometry": {
        "type": "Point",
        "coordinates": [
          1.9675368324460132,
          41.26397125453566
        ]
      },
      "properties": {
        "date": "2025-03-27"
      }
    },
    {
      "type": "Feature",
      "geometry": {
        "type": "Point",
        "coordinates": [
          1.9676561944849178,
          41.26397232496352
        ]
      },
      "properties": {
        "date": "2025-03-27"
      }
    },
    {
      "type": "Feature",
      "geometry": {
        "type": "Point",
        "coordinates": [
          1.9677755565302615,
          41.26397339526767
        ]
      },
      "properties": {
        "date": "2025-03-27"
      }
    },
    {
      "type": "Feature",
      "geometry": {
        "type": "Point",
        "coordinates": [
          1.967894918582045,
          41.263974465448094
        ]
      },
      "properties": {
        "date": "2025-03-27"
      }
    },
    {
      "type": "Feature",
      "geometry": {
        "type": "Point",
        "coordinates": [
          1.9680142806402658,
          41.26397553550479
        ]
      },
      "properties": {
        "date": "2025-03-27"
      }
    },
    {
      "type": "Feature",
      "geometry": {
        "type": "Point",
        "coordinates": [
          1.968133642704924,
          41.26397660543777
        ]
      },
      "properties": {
        "date": "2025-03-27"
      }
    },
    {
      "type": "Feature",
      "geometry": {
        "type": "Point",
        "coordinates": [
          1.9682530047760192,
          41.26397767524702
        ]
      },
      "properties": {
        "date": "2025-03-27"
      }
    },
    {
      "type": "Feature",
      "geometry": {
        "type": "Point",
        "coordinates": [
          1.96837236685355,
          41.26397874493255
        ]
      },
      "properties": {
        "date": "2025-03-27"
      }
    },
    {
      "type": "Feature",
      "geometry": {
        "type": "Point",
        "coordinates": [
          1.9684917289375155,
          41.26397981449437
        ]
      },
      "properties": {
        "date": "2025-03-27"
      }
    },
    {
      "type": "Feature",
      "geometry": {
        "type": "Point",
        "coordinates": [
          1.9686110910279153,
          41.263980883932454
        ]
      },
      "properties": {
        "date": "2025-03-27"
      }
    },
    {
      "type": "Feature",
      "geometry": {
        "type": "Point",
        "coordinates": [
          1.9687304531247494,
          41.26398195324682
        ]
      },
      "properties": {
        "date": "2025-03-27"
      }
    },
    {
      "type": "Feature",
      "geometry": {
        "type": "Point",
        "coordinates": [
          1.968849815228016,
          41.26398302243746
        ]
      },
      "properties": {
        "date": "2025-03-27"
      }
    },
    {
      "type": "Feature",
      "geometry": {
        "type": "Point",
        "coordinates": [
          1.9689691773377147,
          41.263984091504376
        ]
      },
      "properties": {
        "date": "2025-03-27"
      }
    },
    {
      "type": "Feature",
      "geometry": {
        "type": "Point",
        "coordinates": [
          1.9690885394538444,
          41.263985160447575
        ]
      },
      "properties": {
        "date": "2025-03-27"
      }
    },
    {
      "type": "Feature",
      "geometry": {
        "type": "Point",
        "coordinates": [
          1.948917878016352,
          41.26371268963282
        ]
      },
      "properties": {
        "date": "2025-03-27"
      }
    },
    {
      "type": "Feature",
      "geometry": {
        "type": "Point",
        "coordinates": [
          1.949037238877637,
          41.26371377935771
        ]
      },
      "properties": {
        "date": "2025-03-27"
      }
    },
    {
      "type": "Feature",
      "geometry": {
        "type": "Point",
        "coordinates": [
          1.9491565997454772,
          41.26371486895887
        ]
      },
      "properties": {
        "date": "2025-03-27"
      }
    },
    {
      "type": "Feature",
      "geometry": {
        "type": "Point",
        "coordinates": [
          1.9492759606198717,
          41.26371595843632
        ]
      },
      "properties": {
        "date": "2025-03-27"
      }
    },
    {
      "type": "Feature",
      "geometry": {
        "type": "Point",
        "coordinates": [
          1.949395321500821,
          41.26371704779006
        ]
      },
      "properties": {
        "date": "2025-03-27"
      }
    },
    {
      "type": "Feature",
      "geometry": {
        "type": "Point",
        "coordinates": [
          1.9495146823883232,
          41.263718137020064
        ]
      },
      "properties": {
        "date": "2025-03-27"
      }
    },
    {
      "type": "Feature",
      "geometry": {
        "type": "Point",
        "coordinates": [
          1.9496340432823784,
          41.263719226126355
        ]
      },
      "properties": {
        "date": "2025-03-27"
      }
    },
    {
      "type": "Feature",
      "geometry": {
        "type": "Point",
        "coordinates": [
          1.9497534041829852,
          41.263720315108934
        ]
      },
      "properties": {
        "date": "2025-03-27"
      }
    },
    {
      "type": "Feature",
      "geometry": {
        "type": "Point",
        "coordinates": [
          1.9498727650901437,
          41.26372140396778
        ]
      },
      "properties": {
        "date": "2025-03-27"
      }
    },
    {
      "type": "Feature",
      "geometry": {
        "type": "Point",
        "coordinates": [
          1.9630025047024138,
          41.263840423132336
        ]
      },
      "properties": {
        "date": "2025-03-27"
      }
    },
    {
      "type": "Feature",
      "geometry": {
        "type": "Point",
        "coordinates": [
          1.9631218663321193,
          41.26384149825825
        ]
      },
      "properties": {
        "date": "2025-03-27"
      }
    },
    {
      "type": "Feature",
      "geometry": {
        "type": "Point",
        "coordinates": [
          1.9632412279682925,
          41.263842573260455
        ]
      },
      "properties": {
        "date": "2025-03-27"
      }
    },
    {
      "type": "Feature",
      "geometry": {
        "type": "Point",
        "coordinates": [
          1.9633605896109334,
          41.263843648138916
        ]
      },
      "properties": {
        "date": "2025-03-27"
      }
    },
    {
      "type": "Feature",
      "geometry": {
        "type": "Point",
        "coordinates": [
          1.9690899560483226,
          41.26389509680905
        ]
      },
      "properties": {
        "date": "2025-03-27"
      }
    },
    {
      "type": "Feature",
      "geometry": {
        "type": "Point",
        "coordinates": [
          1.9692093180069363,
          41.26389616562516
        ]
      },
      "properties": {
        "date": "2025-03-27"
      }
    },
    {
      "type": "Feature",
      "geometry": {
        "type": "Point",
        "coordinates": [
          1.9693286799719802,
          41.26389723431755
        ]
      },
      "properties": {
        "date": "2025-03-27"
      }
    },
    {
      "type": "Feature",
      "geometry": {
        "type": "Point",
        "coordinates": [
          1.9694480419434528,
          41.26389830288621
        ]
      },
      "properties": {
        "date": "2025-03-27"
      }
    },
    {
      "type": "Feature",
      "geometry": {
        "type": "Point",
        "coordinates": [
          1.969567403921354,
          41.263899371331156
        ]
      },
      "properties": {
        "date": "2025-03-27"
      }
    },
    {
      "type": "Feature",
      "geometry": {
        "type": "Point",
        "coordinates": [
          1.9696867659056823,
          41.263900439652375
        ]
      },
      "properties": {
        "date": "2025-03-27"
      }
    },
    {
      "type": "Feature",
      "geometry": {
        "type": "Point",
        "coordinates": [
          1.969806127896438,
          41.263901507849866
        ]
      },
      "properties": {
        "date": "2025-03-27"
      }
    },
    {
      "type": "Feature",
      "geometry": {
        "type": "Point",
        "coordinates": [
          1.9699254898936196,
          41.26390257592364
        ]
      },
      "properties": {
        "date": "2025-03-27"
      }
    },
    {
      "type": "Feature",
      "geometry": {
        "type": "Point",
        "coordinates": [
          1.970044851897227,
          41.26390364387369
        ]
      },
      "properties": {
        "date": "2025-03-27"
      }
    },
    {
      "type": "Feature",
      "geometry": {
        "type": "Point",
        "coordinates": [
          1.9701642139072584,
          41.26390471170002
        ]
      },
      "properties": {
        "date": "2025-03-27"
      }
    },
    {
      "type": "Feature",
      "geometry": {
        "type": "Point",
        "coordinates": [
          1.9702835759237138,
          41.263905779402634
        ]
      },
      "properties": {
        "date": "2025-03-27"
      }
    },
    {
      "type": "Feature",
      "geometry": {
        "type": "Point",
        "coordinates": [
          1.9704029379465924,
          41.26390684698151
        ]
      },
      "properties": {
        "date": "2025-03-27"
      }
    },
    {
      "type": "Feature",
      "geometry": {
        "type": "Point",
        "coordinates": [
          1.9705222999758933,
          41.26390791443668
        ]
      },
      "properties": {
        "date": "2025-03-27"
      }
    },
    {
      "type": "Feature",
      "geometry": {
        "type": "Point",
        "coordinates": [
          1.9706416620116158,
          41.26390898176812
        ]
      },
      "properties": {
        "date": "2025-03-27"
      }
    },
    {
      "type": "Feature",
      "geometry": {
        "type": "Point",
        "coordinates": [
          1.9707610240537599,
          41.26391004897584
        ]
      },
      "properties": {
        "date": "2025-03-27"
      }
    },
    {
      "type": "Feature",
      "geometry": {
        "type": "Point",
        "coordinates": [
          1.9708803861023234,
          41.26391111605983
        ]
      },
      "properties": {
        "date": "2025-03-27"
      }
    },
    {
      "type": "Feature",
      "geometry": {
        "type": "Point",
        "coordinates": [
          1.970999748157307,
          41.2639121830201
        ]
      },
      "properties": {
        "date": "2025-03-27"
      }
    },
    {
      "type": "Feature",
      "geometry": {
        "type": "Point",
        "coordinates": [
          1.9711191102187084,
          41.26391324985665
        ]
      },
      "properties": {
        "date": "2025-03-27"
      }
    },
    {
      "type": "Feature",
      "geometry": {
        "type": "Point",
        "coordinates": [
          1.9712384722865286,
          41.263914316569476
        ]
      },
      "properties": {
        "date": "2025-03-27"
      }
    },
    {
      "type": "Feature",
      "geometry": {
        "type": "Point",
        "coordinates": [
          1.9713578343607654,
          41.26391538315858
        ]
      },
      "properties": {
        "date": "2025-03-27"
      }
    },
    {
      "type": "Feature",
      "geometry": {
        "type": "Point",
        "coordinates": [
          1.971477196441419,
          41.26391644962396
        ]
      },
      "properties": {
        "date": "2025-03-27"
      }
    },
    {
      "type": "Feature",
      "geometry": {
        "type": "Point",
        "coordinates": [
          1.9715965585284876,
          41.263917515965616
        ]
      },
      "properties": {
        "date": "2025-03-27"
      }
    },
    {
      "type": "Feature",
      "geometry": {
        "type": "Point",
        "coordinates": [
          1.971715920621972,
          41.26391858218357
        ]
      },
      "properties": {
        "date": "2025-03-27"
      }
    },
    {
      "type": "Feature",
      "geometry": {
        "type": "Point",
        "coordinates": [
          1.9718352827218701,
          41.26391964827778
        ]
      },
      "properties": {
        "date": "2025-03-27"
      }
    },
    {
      "type": "Feature",
      "geometry": {
        "type": "Point",
        "coordinates": [
          1.9719546448281824,
          41.263920714248265
        ]
      },
      "properties": {
        "date": "2025-03-27"
      }
    },
    {
      "type": "Feature",
      "geometry": {
        "type": "Point",
        "coordinates": [
          1.9720740069409068,
          41.263921780095046
        ]
      },
      "properties": {
        "date": "2025-03-27"
      }
    },
    {
      "type": "Feature",
      "geometry": {
        "type": "Point",
        "coordinates": [
          1.9721933690600428,
          41.26392284581809
        ]
      },
      "properties": {
        "date": "2025-03-27"
      }
    },
    {
      "type": "Feature",
      "geometry": {
        "type": "Point",
        "coordinates": [
          1.972312731185591,
          41.263923911417415
        ]
      },
      "properties": {
        "date": "2025-03-27"
      }
    },
    {
      "type": "Feature",
      "geometry": {
        "type": "Point",
        "coordinates": [
          1.9724320933175494,
          41.263924976893
        ]
      },
      "properties": {
        "date": "2025-03-27"
      }
    },
    {
      "type": "Feature",
      "geometry": {
        "type": "Point",
        "coordinates": [
          1.9725514554559171,
          41.26392604224489
        ]
      },
      "properties": {
        "date": "2025-03-27"
      }
    },
    {
      "type": "Feature",
      "geometry": {
        "type": "Point",
        "coordinates": [
          1.9726708176006946,
          41.26392710747304
        ]
      },
      "properties": {
        "date": "2025-03-27"
      }
    },
    {
      "type": "Feature",
      "geometry": {
        "type": "Point",
        "coordinates": [
          1.9727901797518796,
          41.26392817257747
        ]
      },
      "properties": {
        "date": "2025-03-27"
      }
    },
    {
      "type": "Feature",
      "geometry": {
        "type": "Point",
        "coordinates": [
          1.9729095419094724,
          41.263929237558195
        ]
      },
      "properties": {
        "date": "2025-03-27"
      }
    },
    {
      "type": "Feature",
      "geometry": {
        "type": "Point",
        "coordinates": [
          1.9730289040734719,
          41.263930302415176
        ]
      },
      "properties": {
        "date": "2025-03-27"
      }
    },
    {
      "type": "Feature",
      "geometry": {
        "type": "Point",
        "coordinates": [
          1.9731482662438777,
          41.26393136714844
        ]
      },
      "properties": {
        "date": "2025-03-27"
      }
    },
    {
      "type": "Feature",
      "geometry": {
        "type": "Point",
        "coordinates": [
          1.973267628420688,
          41.263932431757986
        ]
      },
      "properties": {
        "date": "2025-03-27"
      }
    },
    {
      "type": "Feature",
      "geometry": {
        "type": "Point",
        "coordinates": [
          1.9733869906039037,
          41.26393349624381
        ]
      },
      "properties": {
        "date": "2025-03-27"
      }
    },
    {
      "type": "Feature",
      "geometry": {
        "type": "Point",
        "coordinates": [
          1.9735063527935233,
          41.263934560605904
        ]
      },
      "properties": {
        "date": "2025-03-27"
      }
    },
    {
      "type": "Feature",
      "geometry": {
        "type": "Point",
        "coordinates": [
          1.9736257149895455,
          41.26393562484427
        ]
      },
      "properties": {
        "date": "2025-03-27"
      }
    },
    {
      "type": "Feature",
      "geometry": {
        "type": "Point",
        "coordinates": [
          1.9737450771919696,
          41.26393668895892
        ]
      },
      "properties": {
        "date": "2025-03-27"
      }
    },
    {
      "type": "Feature",
      "geometry": {
        "type": "Point",
        "coordinates": [
          1.9738644394007963,
          41.26393775294985
        ]
      },
      "properties": {
        "date": "2025-03-27"
      }
    },
    {
      "type": "Feature",
      "geometry": {
        "type": "Point",
        "coordinates": [
          1.9739838016160232,
          41.263938816817046
        ]
      },
      "properties": {
        "date": "2025-03-27"
      }
    },
    {
      "type": "Feature",
      "geometry": {
        "type": "Point",
        "coordinates": [
          1.9741031638376498,
          41.263939880560535
        ]
      },
      "properties": {
        "date": "2025-03-27"
      }
    },
    {
      "type": "Feature",
      "geometry": {
        "type": "Point",
        "coordinates": [
          1.9742225260656763,
          41.263940944180284
        ]
      },
      "properties": {
        "date": "2025-03-27"
      }
    },
    {
      "type": "Feature",
      "geometry": {
        "type": "Point",
        "coordinates": [
          1.9743418883001016,
          41.26394200767633
        ]
      },
      "properties": {
        "date": "2025-03-27"
      }
    },
    {
      "type": "Feature",
      "geometry": {
        "type": "Point",
        "coordinates": [
          1.9744612505409245,
          41.26394307104863
        ]
      },
      "properties": {
        "date": "2025-03-27"
      }
    },
    {
      "type": "Feature",
      "geometry": {
        "type": "Point",
        "coordinates": [
          1.9745806127881442,
          41.26394413429723
        ]
      },
      "properties": {
        "date": "2025-03-27"
      }
    },
    {
      "type": "Feature",
      "geometry": {
        "type": "Point",
        "coordinates": [
          1.9746999750417606,
          41.263945197422096
        ]
      },
      "properties": {
        "date": "2025-03-27"
      }
    },
    {
      "type": "Feature",
      "geometry": {
        "type": "Point",
        "coordinates": [
          1.9748193373017726,
          41.26394626042324
        ]
      },
      "properties": {
        "date": "2025-03-27"
      }
    },
    {
      "type": "Feature",
      "geometry": {
        "type": "Point",
        "coordinates": [
          1.9749386995681795,
          41.26394732330066
        ]
      },
      "properties": {
        "date": "2025-03-27"
      }
    },
    {
      "type": "Feature",
      "geometry": {
        "type": "Point",
        "coordinates": [
          1.9750580618409805,
          41.26394838605435
        ]
      },
      "properties": {
        "date": "2025-03-27"
      }
    },
    {
      "type": "Feature",
      "geometry": {
        "type": "Point",
        "coordinates": [
          1.9751774241201745,
          41.26394944868432
        ]
      },
      "properties": {
        "date": "2025-03-27"
      }
    },
    {
      "type": "Feature",
      "geometry": {
        "type": "Point",
        "coordinates": [
          1.9752967864057613,
          41.26395051119057
        ]
      },
      "properties": {
        "date": "2025-03-27"
      }
    },
    {
      "type": "Feature",
      "geometry": {
        "type": "Point",
        "coordinates": [
          1.9754161486977402,
          41.263951573573095
        ]
      },
      "properties": {
        "date": "2025-03-27"
      }
    },
    {
      "type": "Feature",
      "geometry": {
        "type": "Point",
        "coordinates": [
          1.9755355109961101,
          41.263952635831906
        ]
      },
      "properties": {
        "date": "2025-03-27"
      }
    },
    {
      "type": "Feature",
      "geometry": {
        "type": "Point",
        "coordinates": [
          1.9756548733008705,
          41.26395369796699
        ]
      },
      "properties": {
        "date": "2025-03-27"
      }
    },
    {
      "type": "Feature",
      "geometry": {
        "type": "Point",
        "coordinates": [
          1.9757742356120211,
          41.26395475997834
        ]
      },
      "properties": {
        "date": "2025-03-27"
      }
    },
    {
      "type": "Feature",
      "geometry": {
        "type": "Point",
        "coordinates": [
          1.9758935979295598,
          41.26395582186598
        ]
      },
      "properties": {
        "date": "2025-03-27"
      }
    },
    {
      "type": "Feature",
      "geometry": {
        "type": "Point",
        "coordinates": [
          1.9760129602534866,
          41.26395688362989
        ]
      },
      "properties": {
        "date": "2025-03-27"
      }
    },
    {
      "type": "Feature",
      "geometry": {
        "type": "Point",
        "coordinates": [
          1.9761323225838017,
          41.26395794527007
        ]
      },
      "properties": {
        "date": "2025-03-27"
      }
    },
    {
      "type": "Feature",
      "geometry": {
        "type": "Point",
        "coordinates": [
          1.9762516849205027,
          41.263959006786536
        ]
      },
      "properties": {
        "date": "2025-03-27"
      }
    },
    {
      "type": "Feature",
      "geometry": {
        "type": "Point",
        "coordinates": [
          1.97637104726359,
          41.26396006817928
        ]
      },
      "properties": {
        "date": "2025-03-27"
      }
    },
    {
      "type": "Feature",
      "geometry": {
        "type": "Point",
        "coordinates": [
          1.9764904096130627,
          41.26396112944829
        ]
      },
      "properties": {
        "date": "2025-03-27"
      }
    },
    {
      "type": "Feature",
      "geometry": {
        "type": "Point",
        "coordinates": [
          1.9766097719689193,
          41.26396219059359
        ]
      },
      "properties": {
        "date": "2025-03-27"
      }
    },
    {
      "type": "Feature",
      "geometry": {
        "type": "Point",
        "coordinates": [
          1.9767291343311597,
          41.26396325161516
        ]
      },
      "properties": {
        "date": "2025-03-27"
      }
    },
    {
      "type": "Feature",
      "geometry": {
        "type": "Point",
        "coordinates": [
          1.9768484966997837,
          41.263964312513004
        ]
      },
      "properties": {
        "date": "2025-03-27"
      }
    },
    {
      "type": "Feature",
      "geometry": {
        "type": "Point",
        "coordinates": [
          1.9769678590747894,
          41.26396537328713
        ]
      },
      "properties": {
        "date": "2025-03-27"
      }
    },
    {
      "type": "Feature",
      "geometry": {
        "type": "Point",
        "coordinates": [
          1.9770872214561768,
          41.26396643393754
        ]
      },
      "properties": {
        "date": "2025-03-27"
      }
    },
    {
      "type": "Feature",
      "geometry": {
        "type": "Point",
        "coordinates": [
          1.9772065838439448,
          41.263967494464204
        ]
      },
      "properties": {
        "date": "2025-03-27"
      }
    },
    {
      "type": "Feature",
      "geometry": {
        "type": "Point",
        "coordinates": [
          1.9773259462380928,
          41.26396855486716
        ]
      },
      "properties": {
        "date": "2025-03-27"
      }
    },
    {
      "type": "Feature",
      "geometry": {
        "type": "Point",
        "coordinates": [
          1.9774453086386201,
          41.263969615146394
        ]
      },
      "properties": {
        "date": "2025-03-27"
      }
    },
    {
      "type": "Feature",
      "geometry": {
        "type": "Point",
        "coordinates": [
          1.977564671045526,
          41.263970675301906
        ]
      },
      "properties": {
        "date": "2025-03-27"
      }
    },
    {
      "type": "Feature",
      "geometry": {
        "type": "Point",
        "coordinates": [
          1.9776840334588088,
          41.26397173533369
        ]
      },
      "properties": {
        "date": "2025-03-27"
      }
    },
    {
      "type": "Feature",
      "geometry": {
        "type": "Point",
        "coordinates": [
          1.9778033958784698,
          41.26397279524174
        ]
      },
      "properties": {
        "date": "2025-03-27"
      }
    },
    {
      "type": "Feature",
      "geometry": {
        "type": "Point",
        "coordinates": [
          1.9779227583045067,
          41.26397385502609
        ]
      },
      "properties": {
        "date": "2025-03-27"
      }
    },
    {
      "type": "Feature",
      "geometry": {
        "type": "Point",
        "coordinates": [
          1.978042120736919,
          41.263974914686685
        ]
      },
      "properties": {
        "date": "2025-03-27"
      }
    },
    {
      "type": "Feature",
      "geometry": {
        "type": "Point",
        "coordinates": [
          1.978161483175706,
          41.26397597422358
        ]
      },
      "properties": {
        "date": "2025-03-27"
      }
    },
    {
      "type": "Feature",
      "geometry": {
        "type": "Point",
        "coordinates": [
          1.9782808456208671,
          41.26397703363674
        ]
      },
      "properties": {
        "date": "2025-03-27"
      }
    },
    {
      "type": "Feature",
      "geometry": {
        "type": "Point",
        "coordinates": [
          1.9784002080724015,
          41.26397809292619
        ]
      },
      "properties": {
        "date": "2025-03-27"
      }
    },
    {
      "type": "Feature",
      "geometry": {
        "type": "Point",
        "coordinates": [
          1.9785195705303085,
          41.263979152091906
        ]
      },
      "properties": {
        "date": "2025-03-27"
      }
    },
    {
      "type": "Feature",
      "geometry": {
        "type": "Point",
        "coordinates": [
          1.9786389329945875,
          41.26398021113389
        ]
      },
      "properties": {
        "date": "2025-03-27"
      }
    },
    {
      "type": "Feature",
      "geometry": {
        "type": "Point",
        "coordinates": [
          1.9787582954652374,
          41.26398127005216
        ]
      },
      "properties": {
        "date": "2025-03-27"
      }
    },
    {
      "type": "Feature",
      "geometry": {
        "type": "Point",
        "coordinates": [
          1.9788776579422578,
          41.263982328846716
        ]
      },
      "properties": {
        "date": "2025-03-27"
      }
    },
    {
      "type": "Feature",
      "geometry": {
        "type": "Point",
        "coordinates": [
          1.9789970204256473,
          41.263983387517534
        ]
      },
      "properties": {
        "date": "2025-03-27"
      }
    },
    {
      "type": "Feature",
      "geometry": {
        "type": "Point",
        "coordinates": [
          1.979116382915406,
          41.26398444606463
        ]
      },
      "properties": {
        "date": "2025-03-27"
      }
    },
    {
      "type": "Feature",
      "geometry": {
        "type": "Point",
        "coordinates": [
          1.9792357454115328,
          41.263985504488005
        ]
      },
      "properties": {
        "date": "2025-03-27"
      }
    },
    {
      "type": "Feature",
      "geometry": {
        "type": "Point",
        "coordinates": [
          1.979355107914027,
          41.26398656278765
        ]
      },
      "properties": {
        "date": "2025-03-27"
      }
    },
    {
      "type": "Feature",
      "geometry": {
        "type": "Point",
        "coordinates": [
          1.9794744704228877,
          41.26398762096358
        ]
      },
      "properties": {
        "date": "2025-03-27"
      }
    },
    {
      "type": "Feature",
      "geometry": {
        "type": "Point",
        "coordinates": [
          1.9795938329381142,
          41.263988679015796
        ]
      },
      "properties": {
        "date": "2025-03-27"
      }
    },
    {
      "type": "Feature",
      "geometry": {
        "type": "Point",
        "coordinates": [
          1.9797131954597058,
          41.263989736944275
        ]
      },
      "properties": {
        "date": "2025-03-27"
      }
    },
    {
      "type": "Feature",
      "geometry": {
        "type": "Point",
        "coordinates": [
          1.979832557987662,
          41.26399079474902
        ]
      },
      "properties": {
        "date": "2025-03-27"
      }
    },
    {
      "type": "Feature",
      "geometry": {
        "type": "Point",
        "coordinates": [
          1.9799519205219813,
          41.26399185243005
        ]
      },
      "properties": {
        "date": "2025-03-27"
      }
    },
    {
      "type": "Feature",
      "geometry": {
        "type": "Point",
        "coordinates": [
          1.9800712830626641,
          41.26399290998736
        ]
      },
      "properties": {
        "date": "2025-03-27"
      }
    },
    {
      "type": "Feature",
      "geometry": {
        "type": "Point",
        "coordinates": [
          1.980190645609709,
          41.263993967420944
        ]
      },
      "properties": {
        "date": "2025-03-27"
      }
    },
    {
      "type": "Feature",
      "geometry": {
        "type": "Point",
        "coordinates": [
          1.980310008163115,
          41.263995024730804
        ]
      },
      "properties": {
        "date": "2025-03-27"
      }
    },
    {
      "type": "Feature",
      "geometry": {
        "type": "Point",
        "coordinates": [
          1.9804293707228817,
          41.263996081916936
        ]
      },
      "properties": {
        "date": "2025-03-27"
      }
    },
    {
      "type": "Feature",
      "geometry": {
        "type": "Point",
        "coordinates": [
          1.9805487332890077,
          41.26399713897935
        ]
      },
      "properties": {
        "date": "2025-03-27"
      }
    },
    {
      "type": "Feature",
      "geometry": {
        "type": "Point",
        "coordinates": [
          1.9806680958614935,
          41.26399819591804
        ]
      },
      "properties": {
        "date": "2025-03-27"
      }
    },
    {
      "type": "Feature",
      "geometry": {
        "type": "Point",
        "coordinates": [
          1.9807874584403378,
          41.26399925273301
        ]
      },
      "properties": {
        "date": "2025-03-27"
      }
    },
    {
      "type": "Feature",
      "geometry": {
        "type": "Point",
        "coordinates": [
          1.98090682102554,
          41.26400030942424
        ]
      },
      "properties": {
        "date": "2025-03-27"
      }
    },
    {
      "type": "Feature",
      "geometry": {
        "type": "Point",
        "coordinates": [
          1.9482031582644597,
          41.26361608564057
        ]
      },
      "properties": {
        "date": "2025-03-27"
      }
    },
    {
      "type": "Feature",
      "geometry": {
        "type": "Point",
        "coordinates": [
          1.9483225189224553,
          41.26361717610434
        ]
      },
      "properties": {
        "date": "2025-03-27"
      }
    },
    {
      "type": "Feature",
      "geometry": {
        "type": "Point",
        "coordinates": [
          1.9484418795870109,
          41.2636182664444
        ]
      },
      "properties": {
        "date": "2025-03-27"
      }
    },
    {
      "type": "Feature",
      "geometry": {
        "type": "Point",
        "coordinates": [
          1.9485612402581256,
          41.263619356660726
        ]
      },
      "properties": {
        "date": "2025-03-27"
      }
    },
    {
      "type": "Feature",
      "geometry": {
        "type": "Point",
        "coordinates": [
          1.9486806009357989,
          41.26362044675333
        ]
      },
      "properties": {
        "date": "2025-03-27"
      }
    },
    {
      "type": "Feature",
      "geometry": {
        "type": "Point",
        "coordinates": [
          1.9487999616200298,
          41.26362153672222
        ]
      },
      "properties": {
        "date": "2025-03-27"
      }
    },
    {
      "type": "Feature",
      "geometry": {
        "type": "Point",
        "coordinates": [
          1.9489193223108172,
          41.2636226265674
        ]
      },
      "properties": {
        "date": "2025-03-27"
      }
    },
    {
      "type": "Feature",
      "geometry": {
        "type": "Point",
        "coordinates": [
          1.9809082213827562,
          41.26391024545287
        ]
      },
      "properties": {
        "date": "2025-03-27"
      }
    },
    {
      "type": "Feature",
      "geometry": {
        "type": "Point",
        "coordinates": [
          1.981027583810365,
          41.263911302017064
        ]
      },
      "properties": {
        "date": "2025-03-27"
      }
    },
    {
      "type": "Feature",
      "geometry": {
        "type": "Point",
        "coordinates": [
          1.9811469462443312,
          41.263912358457524
        ]
      },
      "properties": {
        "date": "2025-03-27"
      }
    },
    {
      "type": "Feature",
      "geometry": {
        "type": "Point",
        "coordinates": [
          1.9812663086846516,
          41.263913414774265
        ]
      },
      "properties": {
        "date": "2025-03-27"
      }
    },
    {
      "type": "Feature",
      "geometry": {
        "type": "Point",
        "coordinates": [
          1.9813856711313271,
          41.26391447096729
        ]
      },
      "properties": {
        "date": "2025-03-27"
      }
    },
    {
      "type": "Feature",
      "geometry": {
        "type": "Point",
        "coordinates": [
          1.9815050335843563,
          41.26391552703658
        ]
      },
      "properties": {
        "date": "2025-03-27"
      }
    },
    {
      "type": "Feature",
      "geometry": {
        "type": "Point",
        "coordinates": [
          1.9816243960437394,
          41.26391658298215
        ]
      },
      "properties": {
        "date": "2025-03-27"
      }
    },
    {
      "type": "Feature",
      "geometry": {
        "type": "Point",
        "coordinates": [
          1.9817437585094748,
          41.26391763880399
        ]
      },
      "properties": {
        "date": "2025-03-27"
      }
    },
    {
      "type": "Feature",
      "geometry": {
        "type": "Point",
        "coordinates": [
          1.9818631209815616,
          41.26391869450211
        ]
      },
      "properties": {
        "date": "2025-03-27"
      }
    },
    {
      "type": "Feature",
      "geometry": {
        "type": "Point",
        "coordinates": [
          1.9819824834599988,
          41.26391975007651
        ]
      },
      "properties": {
        "date": "2025-03-27"
      }
    },
    {
      "type": "Feature",
      "geometry": {
        "type": "Point",
        "coordinates": [
          1.982101845944787,
          41.26392080552718
        ]
      },
      "properties": {
        "date": "2025-03-27"
      }
    },
    {
      "type": "Feature",
      "geometry": {
        "type": "Point",
        "coordinates": [
          1.9822212084359245,
          41.26392186085413
        ]
      },
      "properties": {
        "date": "2025-03-27"
      }
    },
    {
      "type": "Feature",
      "geometry": {
        "type": "Point",
        "coordinates": [
          1.9823405709334105,
          41.26392291605735
        ]
      },
      "properties": {
        "date": "2025-03-27"
      }
    },
    {
      "type": "Feature",
      "geometry": {
        "type": "Point",
        "coordinates": [
          1.9824599334372446,
          41.26392397113686
        ]
      },
      "properties": {
        "date": "2025-03-27"
      }
    },
    {
      "type": "Feature",
      "geometry": {
        "type": "Point",
        "coordinates": [
          1.982579295947426,
          41.26392502609264
        ]
      },
      "properties": {
        "date": "2025-03-27"
      }
    },
    {
      "type": "Feature",
      "geometry": {
        "type": "Point",
        "coordinates": [
          1.9826986584639537,
          41.26392608092469
        ]
      },
      "properties": {
        "date": "2025-03-27"
      }
    },
    {
      "type": "Feature",
      "geometry": {
        "type": "Point",
        "coordinates": [
          1.9828180209868274,
          41.26392713563302
        ]
      },
      "properties": {
        "date": "2025-03-27"
      }
    },
    {
      "type": "Feature",
      "geometry": {
        "type": "Point",
        "coordinates": [
          1.9829373835160455,
          41.26392819021763
        ]
      },
      "properties": {
        "date": "2025-03-27"
      }
    },
    {
      "type": "Feature",
      "geometry": {
        "type": "Point",
        "coordinates": [
          1.9830567460516089,
          41.263929244678515
        ]
      },
      "properties": {
        "date": "2025-03-27"
      }
    },
    {
      "type": "Feature",
      "geometry": {
        "type": "Point",
        "coordinates": [
          1.9831761085935151,
          41.26393029901566
        ]
      },
      "properties": {
        "date": "2025-03-27"
      }
    },
    {
      "type": "Feature",
      "geometry": {
        "type": "Point",
        "coordinates": [
          1.983295471141764,
          41.2639313532291
        ]
      },
      "properties": {
        "date": "2025-03-27"
      }
    },
    {
      "type": "Feature",
      "geometry": {
        "type": "Point",
        "coordinates": [
          1.983414833696355,
          41.263932407318805
        ]
      },
      "properties": {
        "date": "2025-03-27"
      }
    },
    {
      "type": "Feature",
      "geometry": {
        "type": "Point",
        "coordinates": [
          1.9835341962572872,
          41.26393346128479
        ]
      },
      "properties": {
        "date": "2025-03-27"
      }
    },
    {
      "type": "Feature",
      "geometry": {
        "type": "Point",
        "coordinates": [
          1.98365355882456,
          41.263934515127055
        ]
      },
      "properties": {
        "date": "2025-03-27"
      }
    },
    {
      "type": "Feature",
      "geometry": {
        "type": "Point",
        "coordinates": [
          1.983772921398173,
          41.26393556884559
        ]
      },
      "properties": {
        "date": "2025-03-27"
      }
    },
    {
      "type": "Feature",
      "geometry": {
        "type": "Point",
        "coordinates": [
          1.9838922839781246,
          41.263936622440404
        ]
      },
      "properties": {
        "date": "2025-03-27"
      }
    },
    {
      "type": "Feature",
      "geometry": {
        "type": "Point",
        "coordinates": [
          1.9840116465644142,
          41.26393767591149
        ]
      },
      "properties": {
        "date": "2025-03-27"
      }
    },
    {
      "type": "Feature",
      "geometry": {
        "type": "Point",
        "coordinates": [
          1.9841310091570423,
          41.26393872925886
        ]
      },
      "properties": {
        "date": "2025-03-27"
      }
    },
    {
      "type": "Feature",
      "geometry": {
        "type": "Point",
        "coordinates": [
          1.9842503717560067,
          41.2639397824825
        ]
      },
      "properties": {
        "date": "2025-03-27"
      }
    },
    {
      "type": "Feature",
      "geometry": {
        "type": "Point",
        "coordinates": [
          1.984369734361307,
          41.26394083558242
        ]
      },
      "properties": {
        "date": "2025-03-27"
      }
    },
    {
      "type": "Feature",
      "geometry": {
        "type": "Point",
        "coordinates": [
          1.9844890969729427,
          41.263941888558605
        ]
      },
      "properties": {
        "date": "2025-03-27"
      }
    },
    {
      "type": "Feature",
      "geometry": {
        "type": "Point",
        "coordinates": [
          1.9846084595909128,
          41.26394294141108
        ]
      },
      "properties": {
        "date": "2025-03-27"
      }
    },
    {
      "type": "Feature",
      "geometry": {
        "type": "Point",
        "coordinates": [
          1.9847278222152172,
          41.26394399413983
        ]
      },
      "properties": {
        "date": "2025-03-27"
      }
    },
    {
      "type": "Feature",
      "geometry": {
        "type": "Point",
        "coordinates": [
          1.9848471848458544,
          41.263945046744844
        ]
      },
      "properties": {
        "date": "2025-03-27"
      }
    },
    {
      "type": "Feature",
      "geometry": {
        "type": "Point",
        "coordinates": [
          1.9849665474828242,
          41.26394609922613
        ]
      },
      "properties": {
        "date": "2025-03-27"
      }
    },
    {
      "type": "Feature",
      "geometry": {
        "type": "Point",
        "coordinates": [
          1.9850859101261251,
          41.26394715158371
        ]
      },
      "properties": {
        "date": "2025-03-27"
      }
    },
    {
      "type": "Feature",
      "geometry": {
        "type": "Point",
        "coordinates": [
          1.9852052727757572,
          41.26394820381755
        ]
      },
      "properties": {
        "date": "2025-03-27"
      }
    },
    {
      "type": "Feature",
      "geometry": {
        "type": "Point",
        "coordinates": [
          1.9853246354317196,
          41.26394925592767
        ]
      },
      "properties": {
        "date": "2025-03-27"
      }
    },
    {
      "type": "Feature",
      "geometry": {
        "type": "Point",
        "coordinates": [
          1.9854439980940108,
          41.26395030791408
        ]
      },
      "properties": {
        "date": "2025-03-27"
      }
    },
    {
      "type": "Feature",
      "geometry": {
        "type": "Point",
        "coordinates": [
          1.9855633607626313,
          41.26395135977675
        ]
      },
      "properties": {
        "date": "2025-03-27"
      }
    },
    {
      "type": "Feature",
      "geometry": {
        "type": "Point",
        "coordinates": [
          1.9856827234375791,
          41.263952411515696
        ]
      },
      "properties": {
        "date": "2025-03-27"
      }
    },
    {
      "type": "Feature",
      "geometry": {
        "type": "Point",
        "coordinates": [
          1.9858020861188543,
          41.263953463130925
        ]
      },
      "properties": {
        "date": "2025-03-27"
      }
    },
    {
      "type": "Feature",
      "geometry": {
        "type": "Point",
        "coordinates": [
          1.9859214488064558,
          41.26395451462243
        ]
      },
      "properties": {
        "date": "2025-03-27"
      }
    },
    {
      "type": "Feature",
      "geometry": {
        "type": "Point",
        "coordinates": [
          1.986040811500383,
          41.2639555659902
        ]
      },
      "properties": {
        "date": "2025-03-27"
      }
    },
    {
      "type": "Feature",
      "geometry": {
        "type": "Point",
        "coordinates": [
          1.9861601742006354,
          41.26395661723424
        ]
      },
      "properties": {
        "date": "2025-03-27"
      }
    },
    {
      "type": "Feature",
      "geometry": {
        "type": "Point",
        "coordinates": [
          1.9862795369072117,
          41.263957668354564
        ]
      },
      "properties": {
        "date": "2025-03-27"
      }
    },
    {
      "type": "Feature",
      "geometry": {
        "type": "Point",
        "coordinates": [
          1.9863988996201116,
          41.26395871935117
        ]
      },
      "properties": {
        "date": "2025-03-27"
      }
    },
    {
      "type": "Feature",
      "geometry": {
        "type": "Point",
        "coordinates": [
          1.9865182623393336,
          41.26395977022405
        ]
      },
      "properties": {
        "date": "2025-03-27"
      }
    },
    {
      "type": "Feature",
      "geometry": {
        "type": "Point",
        "coordinates": [
          1.9866376250648783,
          41.2639608209732
        ]
      },
      "properties": {
        "date": "2025-03-27"
      }
    },
    {
      "type": "Feature",
      "geometry": {
        "type": "Point",
        "coordinates": [
          1.9867569877967435,
          41.26396187159863
        ]
      },
      "properties": {
        "date": "2025-03-27"
      }
    },
    {
      "type": "Feature",
      "geometry": {
        "type": "Point",
        "coordinates": [
          1.9868763505349296,
          41.26396292210033
        ]
      },
      "properties": {
        "date": "2025-03-27"
      }
    },
    {
      "type": "Feature",
      "geometry": {
        "type": "Point",
        "coordinates": [
          1.9869957132794356,
          41.26396397247832
        ]
      },
      "properties": {
        "date": "2025-03-27"
      }
    },
    {
      "type": "Feature",
      "geometry": {
        "type": "Point",
        "coordinates": [
          1.9871150760302596,
          41.26396502273258
        ]
      },
      "properties": {
        "date": "2025-03-27"
      }
    },
    {
      "type": "Feature",
      "geometry": {
        "type": "Point",
        "coordinates": [
          1.9872344387874026,
          41.263966072863106
        ]
      },
      "properties": {
        "date": "2025-03-27"
      }
    },
    {
      "type": "Feature",
      "geometry": {
        "type": "Point",
        "coordinates": [
          1.987353801550863,
          41.2639671228699
        ]
      },
      "properties": {
        "date": "2025-03-27"
      }
    },
    {
      "type": "Feature",
      "geometry": {
        "type": "Point",
        "coordinates": [
          1.98747316432064,
          41.26396817275298
        ]
      },
      "properties": {
        "date": "2025-03-27"
      }
    },
    {
      "type": "Feature",
      "geometry": {
        "type": "Point",
        "coordinates": [
          1.9875925270967327,
          41.263969222512344
        ]
      },
      "properties": {
        "date": "2025-03-27"
      }
    },
    {
      "type": "Feature",
      "geometry": {
        "type": "Point",
        "coordinates": [
          1.9877118898791415,
          41.26397027214797
        ]
      },
      "properties": {
        "date": "2025-03-27"
      }
    },
    {
      "type": "Feature",
      "geometry": {
        "type": "Point",
        "coordinates": [
          1.987831252667864,
          41.263971321659874
        ]
      },
      "properties": {
        "date": "2025-03-27"
      }
    },
    {
      "type": "Feature",
      "geometry": {
        "type": "Point",
        "coordinates": [
          1.9879506154629003,
          41.26397237104806
        ]
      },
      "properties": {
        "date": "2025-03-27"
      }
    },
    {
      "type": "Feature",
      "geometry": {
        "type": "Point",
        "coordinates": [
          1.98806997826425,
          41.2639734203125
        ]
      },
      "properties": {
        "date": "2025-03-27"
      }
    },
    {
      "type": "Feature",
      "geometry": {
        "type": "Point",
        "coordinates": [
          1.9881893410719116,
          41.263974469453245
        ]
      },
      "properties": {
        "date": "2025-03-27"
      }
    },
    {
      "type": "Feature",
      "geometry": {
        "type": "Point",
        "coordinates": [
          1.9883087038858853,
          41.263975518470254
        ]
      },
      "properties": {
        "date": "2025-03-27"
      }
    },
    {
      "type": "Feature",
      "geometry": {
        "type": "Point",
        "coordinates": [
          1.9467722781192829,
          41.26351292742033
        ]
      },
      "properties": {
        "date": "2025-03-27"
      }
    },
    {
      "type": "Feature",
      "geometry": {
        "type": "Point",
        "coordinates": [
          1.9468916385345614,
          41.26351401936527
        ]
      },
      "properties": {
        "date": "2025-03-27"
      }
    },
    {
      "type": "Feature",
      "geometry": {
        "type": "Point",
        "coordinates": [
          1.9470109989564084,
          41.26351511118649
        ]
      },
      "properties": {
        "date": "2025-03-27"
      }
    },
    {
      "type": "Feature",
      "geometry": {
        "type": "Point",
        "coordinates": [
          1.947130359384824,
          41.263516202884006
        ]
      },
      "properties": {
        "date": "2025-03-27"
      }
    },
    {
      "type": "Feature",
      "geometry": {
        "type": "Point",
        "coordinates": [
          1.9472497198198067,
          41.263517294457806
        ]
      },
      "properties": {
        "date": "2025-03-27"
      }
    },
    {
      "type": "Feature",
      "geometry": {
        "type": "Point",
        "coordinates": [
          1.9473690802613564,
          41.26351838590789
        ]
      },
      "properties": {
        "date": "2025-03-27"
      }
    },
    {
      "type": "Feature",
      "geometry": {
        "type": "Point",
        "coordinates": [
          1.9474884407094717,
          41.26351947723423
        ]
      },
      "properties": {
        "date": "2025-03-27"
      }
    },
    {
      "type": "Feature",
      "geometry": {
        "type": "Point",
        "coordinates": [
          1.9476078011641522,
          41.26352056843688
        ]
      },
      "properties": {
        "date": "2025-03-27"
      }
    },
    {
      "type": "Feature",
      "geometry": {
        "type": "Point",
        "coordinates": [
          1.9477271616253973,
          41.263521659515796
        ]
      },
      "properties": {
        "date": "2025-03-27"
      }
    },
    {
      "type": "Feature",
      "geometry": {
        "type": "Point",
        "coordinates": [
          1.947846522093206,
          41.263522750471004
        ]
      },
      "properties": {
        "date": "2025-03-27"
      }
    },
    {
      "type": "Feature",
      "geometry": {
        "type": "Point",
        "coordinates": [
          1.9479658825675774,
          41.26352384130249
        ]
      },
      "properties": {
        "date": "2025-03-27"
      }
    },
    {
      "type": "Feature",
      "geometry": {
        "type": "Point",
        "coordinates": [
          1.9480852430485112,
          41.263524932010256
        ]
      },
      "properties": {
        "date": "2025-03-27"
      }
    },
    {
      "type": "Feature",
      "geometry": {
        "type": "Point",
        "coordinates": [
          1.9482046035360066,
          41.263526022594306
        ]
      },
      "properties": {
        "date": "2025-03-27"
      }
    },
    {
      "type": "Feature",
      "geometry": {
        "type": "Point",
        "coordinates": [
          1.9880713687781288,
          41.2638833561407
        ]
      },
      "properties": {
        "date": "2025-03-27"
      }
    },
    {
      "type": "Feature",
      "geometry": {
        "type": "Point",
        "coordinates": [
          1.9881907314218394,
          41.263884405278134
        ]
      },
      "properties": {
        "date": "2025-03-27"
      }
    },
    {
      "type": "Feature",
      "geometry": {
        "type": "Point",
        "coordinates": [
          1.988310094071862,
          41.26388545429183
        ]
      },
      "properties": {
        "date": "2025-03-27"
      }
    },
    {
      "type": "Feature",
      "geometry": {
        "type": "Point",
        "coordinates": [
          1.9880727592856946,
          41.26379329196743
        ]
      },
      "properties": {
        "date": "2025-03-27"
      }
    },
    {
      "type": "Feature",
      "geometry": {
        "type": "Point",
        "coordinates": [
          1.9880741497869487,
          41.26370322779272
        ]
      },
      "properties": {
        "date": "2025-03-27"
      }
    },
    {
      "type": "Feature",
      "geometry": {
        "type": "Point",
        "coordinates": [
          1.9880755402818906,
          41.26361316361654
        ]
      },
      "properties": {
        "date": "2025-03-27"
      }
    },
    {
      "type": "Feature",
      "geometry": {
        "type": "Point",
        "coordinates": [
          1.9878382068136258,
          41.263521000819324
        ]
      },
      "properties": {
        "date": "2025-03-27"
      }
    },
    {
      "type": "Feature",
      "geometry": {
        "type": "Point",
        "coordinates": [
          1.9879575687889166,
          41.263522050190986
        ]
      },
      "properties": {
        "date": "2025-03-27"
      }
    },
    {
      "type": "Feature",
      "geometry": {
        "type": "Point",
        "coordinates": [
          1.9880769307705204,
          41.26352309943891
        ]
      },
      "properties": {
        "date": "2025-03-27"
      }
    },
    {
      "type": "Feature",
      "geometry": {
        "type": "Polygon",
        "coordinates": [
          [
            [
              1.9462356856159317,
              41.264465013042155
            ],
            [
              1.9462356856159317,
              41.26341613943984
            ],
            [
              2.0028501773516894,
              41.26341613943984
            ],
            [
              2.0028501773516894,
              41.264465013042155
            ],
            [
              1.9462356856159317,
              41.264465013042155
            ]
          ]
        ]
      },
      "properties": {
        "name": "AOI"
      }
    }
  ]
}