{
  "type": "FeatureCollection",
  "features": [
    {
      "type": "Feature",
      "geometry": {
        "type": "Point",
        "coordinates": [
          1.9509398059137204,
          41.26418151372691
        ]
      },
      "properties": {
        "date": "2025-04-29"
      }
    },
    {
      "type": "Feature",
      "geometry": {
        "type": "Point",
        "coordinates": [
          1.9530926349243554,
          41.26393088275726
        ]
      },
      "properties": {
        "date": "2025-04-29"
      }
    },
    {
      "type": "Feature",
      "geometry": {
        "type": "Point",
        "coordinates": [
          1.954405610883254,
          41.26394281536968
        ]
      },
      "properties": {
        "date": "2025-04-29"
      }
    },
    {
      "type": "Feature",
      "geometry": {
        "type": "Point",
        "coordinates": [
          1.9545249723732108,
          41.26394389941031
        ]
      },
      "properties": {
        "date": "2025-04-29"
      }
    },
    {
      "type": "Feature",
      "geometry": {
        "type": "Point",
        "coordinates": [
          1.9546443338696893,
          41.26394498332721
        ]
      },
      "properties": {
        "date": "2025-04-29"
      }
    },
    {
      "type": "Feature",
      "geometry": {
        "type": "Point",
        "coordinates": [
          1.9548830568822066,
          41.26394715078985
        ]
      },
      "properties": {
        "date": "2025-04-29"
      }
    },
    {
      "type": "Feature",
      "geometry": {
        "type": "Point",
        "coordinates": [
          1.9550024183982446,
          41.26394823433559
        ]
      },
      "properties": {
        "date": "2025-04-29"
      }
    },
    {
      "type": "Feature",
      "geometry": {
        "type": "Point",
        "coordinates": [
          1.9551217799208005,
          41.26394931775762
        ]
      },
      "properties": {
        "date": "2025-04-29"
      }
    },
    {
      "type": "Feature",
      "geometry": {
        "type": "Point",
        "coordinates": [
          1.955241141449875,
          41.263950401055915
        ]
      },
      "properties": {
        "date": "2025-04-29"
      }
    },
    {
      "type": "Feature",
      "geometry": {
        "type": "Point",
        "coordinates": [
          1.955360502985466,
          41.263951484230496
        ]
      },
      "properties": {
        "date": "2025-04-29"
      }
    },
    {
      "type": "Feature",
      "geometry": {
        "type": "Point",
        "coordinates": [
          1.955479864527573,
          41.26395256728135
        ]
      },
      "properties": {
        "date": "2025-04-29"
      }
    },
    {
      "type": "Feature",
      "geometry": {
        "type": "Point",
        "coordinates": [
          1.955599226076196,
          41.263953650208485
        ]
      },
      "properties": {
        "date": "2025-04-29"
      }
    },
    {
      "type": "Feature",
      "geometry": {
        "type": "Point",
        "coordinates": [
          1.9557185876313332,
          41.263954733011914
        ]
      },
      "properties": {
        "date": "2025-04-29"
      }
    },
    {
      "type": "Feature",
      "geometry": {
        "type": "Point",
        "coordinates": [
          1.9558379491929847,
          41.26395581569161
        ]
      },
      "properties": {
        "date": "2025-04-29"
      }
    },
    {
      "type": "Feature",
      "geometry": {
        "type": "Point",
        "coordinates": [
          1.955957310761149,
          41.26395689824758
        ]
      },
      "properties": {
        "date": "2025-04-29"
      }
    },
    {
      "type": "Feature",
      "geometry": {
        "type": "Point",
        "coordinates": [
          1.9560766723358263,
          41.26395798067983
        ]
      },
      "properties": {
        "date": "2025-04-29"
      }
    },
    {
      "type": "Feature",
      "geometry": {
        "type": "Point",
        "coordinates": [
          1.9561960339170148,
          41.26395906298837
        ]
      },
      "properties": {
        "date": "2025-04-29"
      }
    },
    {
      "type": "Feature",
      "geometry": {
        "type": "Point",
        "coordinates": [
          1.9563153955047148,
          41.26396014517318
        ]
      },
      "properties": {
        "date": "2025-04-29"
      }
    },
    {
      "type": "Feature",
      "geometry": {
        "type": "Point",
        "coordinates": [
          1.9564347570989251,
          41.26396122723426
        ]
      },
      "properties": {
        "date": "2025-04-29"
      }
    },
    {
      "type": "Feature",
      "geometry": {
        "type": "Point",
        "coordinates": [
          1.9565541186996442,
          41.26396230917164
        ]
      },
      "properties": {
        "date": "2025-04-29"
      }
    },
    {
      "type": "Feature",
      "geometry": {
        "type": "Point",
        "coordinates": [
          1.9566734803068728,
          41.26396339098529
        ]
      },
      "properties": {
        "date": "2025-04-29"
      }
    },
    {
      "type": "Feature",
      "geometry": {
        "type": "Point",
        "coordinates": [
          1.9567928419206089,
          41.26396447267521
        ]
      },
      "properties": {
        "date": "2025-04-29"
      }
    },
    {
      "type": "Feature",
      "geometry": {
        "type": "Point",
        "coordinates": [
          1.9505874886647805,
          41.2638179976348
        ]
      },
      "properties": {
        "date": "2025-04-29"
      }
    },
    {
      "type": "Feature",
      "geometry": {
        "type": "Point",
        "coordinates": [
          1.950706849781717,
          41.26381908563105
        ]
      },
      "properties": {
        "date": "2025-04-29"
      }
    },
    {
      "type": "Feature",
      "geometry": {
        "type": "Point",
        "coordinates": [
          1.9508262109051984,
          41.263820173503575
        ]
      },
      "properties": {
        "date": "2025-04-29"
      }
    },
    {
      "type": "Feature",
      "geometry": {
        "type": "Point",
        "coordinates": [
          1.950945572035225,
          41.26382126125238
        ]
      },
      "properties": {
        "date": "2025-04-29"
      }
    },
    {
      "type": "Feature",
      "geometry": {
        "type": "Point",
        "coordinates": [
          1.9510649331717946,
          41.26382234887747
        ]
      },
      "properties": {
        "date": "2025-04-29"
      }
    },
    {
      "type": "Feature",
      "geometry": {
        "type": "Point",
        "coordinates": [
          1.9511842943149071,
          41.263823436378836
        ]
      },
      "properties": {
        "date": "2025-04-29"
      }
    },
    {
      "type": "Feature",
      "geometry": {
        "type": "Point",
        "coordinates": [
          1.9513036554645626,
          41.26382452375649
        ]
      },
      "properties": {
        "date": "2025-04-29"
      }
    },
    {
      "type": "Feature",
      "geometry": {
        "type": "Point",
        "coordinates": [
          1.9514230166207587,
          41.26382561101042
        ]
      },
      "properties": {
        "date": "2025-04-29"
      }
    },
    {
      "type": "Feature",
      "geometry": {
        "type": "Point",
        "coordinates": [
          1.951542377783496,
          41.263826698140626
        ]
      },
      "properties": {
        "date": "2025-04-29"
      }
    },
    {
      "type": "Feature",
      "geometry": {
        "type": "Point",
        "coordinates": [
          1.9516617389527733,
          41.263827785147114
        ]
      },
      "properties": {
        "date": "2025-04-29"
      }
    },
    {
      "type": "Feature",
      "geometry": {
        "type": "Point",
        "coordinates": [
          1.9517811001285892,
          41.26382887202988
        ]
      },
      "properties": {
        "date": "2025-04-29"
      }
    },
    {
      "type": "Feature",
      "geometry": {
        "type": "Point",
        "coordinates": [
          1.951900461310944,
          41.26382995878893
        ]
      },
      "properties": {
        "date": "2025-04-29"
      }
    },
    {
      "type": "Feature",
      "geometry": {
        "type": "Point",
        "coordinates": [
          1.9520198224998369,
          41.26383104542427
        ]
      },
      "properties": {
        "date": "2025-04-29"
      }
    },
    {
      "type": "Feature",
      "geometry": {
        "type": "Point",
        "coordinates": [
          1.9521391836952662,
          41.26383213193588
        ]
      },
      "properties": {
        "date": "2025-04-29"
      }
    },
    {
      "type": "Feature",
      "geometry": {
        "type": "Point",
        "coordinates": [
          1.9522585448972318,
          41.26383321832377
        ]
      },
      "properties": {
        "date": "2025-04-29"
      }
    },
    {
      "type": "Feature",
      "geometry": {
        "type": "Point",
        "coordinates": [
          1.9523779061057334,
          41.26383430458794
        ]
      },
      "properties": {
        "date": "2025-04-29"
      }
    },
    {
      "type": "Feature",
      "geometry": {
        "type": "Point",
        "coordinates": [
          1.9524972673207692,
          41.26383539072839
        ]
      },
      "properties": {
        "date": "2025-04-29"
      }
    },
    {
      "type": "Feature",
      "geometry": {
        "type": "Point",
        "coordinates": [
          1.9526166285423399,
          41.26383647674512
        ]
      },
      "properties": {
        "date": "2025-04-29"
      }
    },
    {
      "type": "Feature",
      "geometry": {
        "type": "Point",
        "coordinates": [
          1.952735989770443,
          41.26383756263812
        ]
      },
      "properties": {
        "date": "2025-04-29"
      }
    },
    {
      "type": "Feature",
      "geometry": {
        "type": "Point",
        "coordinates": [
          1.9528553510050783,
          41.26383864840742
        ]
      },
      "properties": {
        "date": "2025-04-29"
      }
    },
    {
      "type": "Feature",
      "geometry": {
        "type": "Point",
        "coordinates": [
          1.9529747122462466,
          41.263839734052986
        ]
      },
      "properties": {
        "date": "2025-04-29"
      }
    },
    {
      "type": "Feature",
      "geometry": {
        "type": "Point",
        "coordinates": [
          1.9530940734939453,
          41.26384081957484
        ]
      },
      "properties": {
        "date": "2025-04-29"
      }
    },
    {
      "type": "Feature",
      "geometry": {
        "type": "Point",
        "coordinates": [
          1.9532134347481744,
          41.26384190497298
        ]
      },
      "properties": {
        "date": "2025-04-29"
      }
    },
    {
      "type": "Feature",
      "geometry": {
        "type": "Point",
        "coordinates": [
          1.953332796008933,
          41.263842990247376
        ]
      },
      "properties": {
        "date": "2025-04-29"
      }
    },
    {
      "type": "Feature",
      "geometry": {
        "type": "Point",
        "coordinates": [
          1.9534521572762202,
          41.26384407539807
        ]
      },
      "properties": {
        "date": "2025-04-29"
      }
    },
    {
      "type": "Feature",
      "geometry": {
        "type": "Point",
        "coordinates": [
          1.9535715185500357,
          41.263845160425035
        ]
      },
      "properties": {
        "date": "2025-04-29"
      }
    },
    {
      "type": "Feature",
      "geometry": {
        "type": "Point",
        "coordinates": [
          1.9536908798303785,
          41.263846245328295
        ]
      },
      "properties": {
        "date": "2025-04-29"
      }
    },
    {
      "type": "Feature",
      "geometry": {
        "type": "Point",
        "coordinates": [
          1.9538102411172482,
          41.26384733010783
        ]
      },
      "properties": {
        "date": "2025-04-29"
      }
    },
    {
      "type": "Feature",
      "geometry": {
        "type": "Point",
        "coordinates": [
          1.9539296024106434,
          41.263848414763636
        ]
      },
      "properties": {
        "date": "2025-04-29"
      }
    },
    {
      "type": "Feature",
      "geometry": {
        "type": "Point",
        "coordinates": [
          1.9540489637105636,
          41.263849499295716
        ]
      },
      "properties": {
        "date": "2025-04-29"
      }
    },
    {
      "type": "Feature",
      "geometry": {
        "type": "Point",
        "coordinates": [
          1.9541683250170083,
          41.2638505837041
        ]
      },
      "properties": {
        "date": "2025-04-29"
      }
    },
    {
      "type": "Feature",
      "geometry": {
        "type": "Point",
        "coordinates": [
          1.9542876863299765,
          41.26385166798874
        ]
      },
      "properties": {
        "date": "2025-04-29"
      }
    },
    {
      "type": "Feature",
      "geometry": {
        "type": "Point",
        "coordinates": [
          1.954407047649468,
          41.26385275214966
        ]
      },
      "properties": {
        "date": "2025-04-29"
      }
    },
    {
      "type": "Feature",
      "geometry": {
        "type": "Point",
        "coordinates": [
          1.9546457703080153,
          41.26385492010038
        ]
      },
      "properties": {
        "date": "2025-04-29"
      }
    },
    {
      "type": "Feature",
      "geometry": {
        "type": "Point",
        "coordinates": [
          1.9547651316470707,
          41.26385600389014
        ]
      },
      "properties": {
        "date": "2025-04-29"
      }
    },
    {
      "type": "Feature",
      "geometry": {
        "type": "Point",
        "coordinates": [
          1.9548844929926463,
          41.26385708755618
        ]
      },
      "properties": {
        "date": "2025-04-29"
      }
    },
    {
      "type": "Feature",
      "geometry": {
        "type": "Point",
        "coordinates": [
          1.9567942754079461,
          41.26387440938699
        ]
      },
      "properties": {
        "date": "2025-04-29"
      }
    },
    {
      "type": "Feature",
      "geometry": {
        "type": "Point",
        "coordinates": [
          1.9491565997454772,
          41.26371486895887
        ]
      },
      "properties": {
        "date": "2025-04-29"
      }
    },
    {
      "type": "Feature",
      "geometry": {
        "type": "Point",
        "coordinates": [
          1.9492759606198717,
          41.26371595843632
        ]
      },
      "properties": {
        "date": "2025-04-29"
      }
    },
    {
      "type": "Feature",
      "geometry": {
        "type": "Point",
        "coordinates": [
          1.949395321500821,
          41.26371704779006
        ]
      },
      "properties": {
        "date": "2025-04-29"
      }
    },
    {
      "type": "Feature",
      "geometry": {
        "type": "Point",
        "coordinates": [
          1.9495146823883232,
          41.263718137020064
        ]
      },
      "properties": {
        "date": "2025-04-29"
      }
    },
    {
      "type": "Feature",
      "geometry": {
        "type": "Point",
        "coordinates": [
          1.9496340432823784,
          41.263719226126355
        ]
      },
      "properties": {
        "date": "2025-04-29"
      }
    },
    {
      "type": "Feature",
      "geometry": {
        "type": "Point",
        "coordinates": [
          1.9497534041829852,
          41.263720315108934
        ]
      },
      "properties": {
        "date": "2025-04-29"
      }
    },
    {
      "type": "Feature",
      "geometry": {
        "type": "Point",
        "coordinates": [
          1.9498727650901437,
          41.26372140396778
        ]
      },
      "properties": {
        "date": "2025-04-29"
      }
    },
    {
      "type": "Feature",
      "geometry": {
        "type": "Point",
        "coordinates": [
          1.9499921260038517,
          41.26372249270292
        ]
      },
      "properties": {
        "date": "2025-04-29"
      }
    },
    {
      "type": "Feature",
      "geometry": {
        "type": "Point",
        "coordinates": [
          1.9501114869241098,
          41.26372358131434
        ]
      },
      "properties": {
        "date": "2025-04-29"
      }
    },
    {
      "type": "Feature",
      "geometry": {
        "type": "Point",
        "coordinates": [
          1.950230847850916,
          41.26372466980203
        ]
      },
      "properties": {
        "date": "2025-04-29"
      }
    },
    {
      "type": "Feature",
      "geometry": {
        "type": "Point",
        "coordinates": [
          1.9503502087842715,
          41.26372575816601
        ]
      },
      "properties": {
        "date": "2025-04-29"
      }
    },
    {
      "type": "Feature",
      "geometry": {
        "type": "Point",
        "coordinates": [
          1.9504695697241738,
          41.263726846406264
        ]
      },
      "properties": {
        "date": "2025-04-29"
      }
    },
    {
      "type": "Feature",
      "geometry": {
        "type": "Point",
        "coordinates": [
          1.9505889306706223,
          41.26372793452281
        ]
      },
      "properties": {
        "date": "2025-04-29"
      }
    },
    {
      "type": "Feature",
      "geometry": {
        "type": "Point",
        "coordinates": [
          1.9567957088887757,
          41.26378434609732
        ]
      },
      "properties": {
        "date": "2025-04-29"
      }
    },
    {
      "type": "Feature",
      "geometry": {
        "type": "Point",
        "coordinates": [
          1.9477257156980925,
          41.26361172254833
        ]
      },
      "properties": {
        "date": "2025-04-29"
      }
    },
    {
      "type": "Feature",
      "geometry": {
        "type": "Point",
        "coordinates": [
          1.947845076329841,
          41.26361281350697
        ]
      },
      "properties": {
        "date": "2025-04-29"
      }
    },
    {
      "type": "Feature",
      "geometry": {
        "type": "Point",
        "coordinates": [
          1.9479644369681517,
          41.26361390434189
        ]
      },
      "properties": {
        "date": "2025-04-29"
      }
    },
    {
      "type": "Feature",
      "geometry": {
        "type": "Point",
        "coordinates": [
          1.9480837976130252,
          41.263614995053096
        ]
      },
      "properties": {
        "date": "2025-04-29"
      }
    },
    {
      "type": "Feature",
      "geometry": {
        "type": "Point",
        "coordinates": [
          1.9482031582644597,
          41.26361608564057
        ]
      },
      "properties": {
        "date": "2025-04-29"
      }
    },
    {
      "type": "Feature",
      "geometry": {
        "type": "Point",
        "coordinates": [
          1.9483225189224553,
          41.26361717610434
        ]
      },
      "properties": {
        "date": "2025-04-29"
      }
    },
    {
      "type": "Feature",
      "geometry": {
        "type": "Point",
        "coordinates": [
          1.9484418795870109,
          41.2636182664444
        ]
      },
      "properties": {
        "date": "2025-04-29"
      }
    },
    {
      "type": "Feature",
      "geometry": {
        "type": "Point",
        "coordinates": [
          1.9485612402581256,
          41.263619356660726
        ]
      },
      "properties": {
        "date": "2025-04-29"
      }
    },
    {
      "type": "Feature",
      "geometry": {
        "type": "Point",
        "coordinates": [
          1.9486806009357989,
          41.26362044675333
        ]
      },
      "properties": {
        "date": "2025-04-29"
      }
    },
    {
      "type": "Feature",
      "geometry": {
        "type": "Point",
        "coordinates": [
          1.9487999616200298,
          41.26362153672222
        ]
      },
      "properties": {
        "date": "2025-04-29"
      }
    },
    {
      "type": "Feature",
      "geometry": {
        "type": "Point",
        "coordinates": [
          1.9489193223108172,
          41.2636226265674
        ]
      },
      "properties": {
        "date": "2025-04-29"
      }
    },
    {
      "type": "Feature",
      "geometry": {
        "type": "Point",
        "coordinates": [
          1.9490386830081616,
          41.26362371628885
        ]
      },
      "properties": {
        "date": "2025-04-29"
      }
    },
    {
      "type": "Feature",
      "geometry": {
        "type": "Point",
        "coordinates": [
          1.9491580437120613,
          41.263624805886586
        ]
      },
      "properties": {
        "date": "2025-04-29"
      }
    },
    {
      "type": "Feature",
      "geometry": {
        "type": "Point",
        "coordinates": [
          1.9567971423630979,
          41.263694282806185
        ]
      },
      "properties": {
        "date": "2025-04-29"
      }
    },
    {
      "type": "Feature",
      "geometry": {
        "type": "Point",
        "coordinates": [
          1.946414196912868,
          41.263509650843176
        ]
      },
      "properties": {
        "date": "2025-04-29"
      }
    },
    {
      "type": "Feature",
      "geometry": {
        "type": "Point",
        "coordinates": [
          1.9465335573084352,
          41.26351074315927
        ]
      },
      "properties": {
        "date": "2025-04-29"
      }
    },
    {
      "type": "Feature",
      "geometry": {
        "type": "Point",
        "coordinates": [
          1.946652917710574,
          41.263511835351665
        ]
      },
      "properties": {
        "date": "2025-04-29"
      }
    },
    {
      "type": "Feature",
      "geometry": {
        "type": "Point",
        "coordinates": [
          1.9467722781192829,
          41.26351292742033
        ]
      },
      "properties": {
        "date": "2025-04-29"
      }
    },
    {
      "type": "Feature",
      "geometry": {
        "type": "Point",
        "coordinates": [
          1.9468916385345614,
          41.26351401936527
        ]
      },
      "properties": {
        "date": "2025-04-29"
      }
    },
    {
      "type": "Feature",
      "geometry": {
        "type": "Point",
        "coordinates": [
          1.9470109989564084,
          41.26351511118649
        ]
      },
      "properties": {
        "date": "2025-04-29"
      }
    },
    {
      "type": "Feature",
      "geometry": {
        "type": "Point",
        "coordinates": [
          1.947130359384824,
          41.263516202884006
        ]
      },
      "properties": {
        "date": "2025-04-29"
      }
    },
    {
      "type": "Feature",
      "geometry": {
        "type": "Point",
        "coordinates": [
          1.9472497198198067,
          41.263517294457806
        ]
      },
      "properties": {
        "date": "2025-04-29"
      }
    },
    {
      "type": "Feature",
      "geometry": {
        "type": "Point",
        "coordinates": [
          1.9473690802613564,
          41.26351838590789
        ]
      },
      "properties": {
        "date": "2025-04-29"
      }
    },
    {
      "type": "Feature",
      "geometry": {
        "type": "Point",
        "coordinates": [
          1.9474884407094717,
          41.26351947723423
        ]
      },
      "properties": {
        "date": "2025-04-29"
      }
    },
    {
      "type": "Feature",
      "geometry": {
        "type": "Point",
        "coordinates": [
          1.9476078011641522,
          41.26352056843688
        ]
      },
      "properties": {
        "date": "2025-04-29"
      }
    },
    {
      "type": "Feature",
      "geometry": {
        "type": "Point",
        "coordinates": [
          1.9477271616253973,
          41.263521659515796
        ]
      },
      "properties": {
        "date": "2025-04-29"
      }
    },
    {
      "type": "Feature",
      "geometry": {
        "type": "Point",
        "coordinates": [
          1.9567985758309132,
          41.26360421951361
        ]
      },
      "properties": {
        "date": "2025-04-29"
      }
    },
    {
      "type": "Feature",
      "geometry": {
        "type": "Point",
        "coordinates": [
          1.9568000092922215,
          41.263514156219564
        ]
      },
      "properties": {
        "date": "2025-04-29"
      }
    },
    {
      "type": "Feature",
      "geometry": {
        "type": "Polygon",
        "coordinates": [
          [
            [
              1.9462356856159317,
              41.264465013042155
            ],
            [
              1.9462356856159317,
              41.26341613943984
            ],
            [
              2.0028501773516894,
              41.26341613943984
            ],
            [
              2.0028501773516894,
              41.264465013042155
            ],
            [
              1.9462356856159317,
              41.264465013042155
            ]
          ]
        ]
      },
      "properties": {
        "name": "AOI"
      }
    }
  ]
}